CompanyName,Address,AddressLang,Phone,Email,Link,province
Arthik Bikas Mitra Saccoss,"Panchakhal,kavre",English,11499046,arthikbrikash061@gmail.com,https://www.sahakariakhabar.com/cooperative-directory/arthik-bikas-mitra-saccoss,Bagmati
Sajjan Mahila Saccos,"Kapan,kathamandu",English,14822770,sajjanmahila@gmail.com,https://www.sahakariakhabar.com/cooperative-directory/sajjan-mahila-saccos,Bagmati
Suryamukhi Sanakisan Krishi Sahakari Sastha,Melamchi 1 Bhotechaur Shindhupalchwok,English,16215232,ssfacl.sipa@gmail.com,https://www.sahakariakhabar.com/cooperative-directory/suryamukhi-sanakisan-krishi-sahakari-sastha,Bagmati
Riddhi Siddhi Multipurpose Co-operative Society Ltd.,"Thahiti, Kathmandu",English,15344771,info@riddhisiddhi.com.np,https://www.sahakariakhabar.com/cooperative-directory/riddhi-siddhi-multipurpose-co-operative-society-ltd.,Bagmati
Parimal Saving & Credit Cooperative Ltd.,"Chhetrapati 17, Kathmandu",English,15348663,parimalsavingandcredit@gmail.com,https://www.sahakariakhabar.com/cooperative-directory/parimal-saving-&-credit-cooperative-ltd.,Bagmati
Shree Sapana Tirtha Multipurpose Co-operative ltd,Tokha 2 Kathmandu,English,14562807,info@sahakariakhabar.com,https://www.sahakariakhabar.com/cooperative-directory/shree-sapana-tirtha-multipurpose-co-operative-ltd,Bagmati
Tokha Janahit Saving & Credit Cooperative,"Tokha, 3 Kathmandu",English,15110064,tokhajanahit@gmail.com,https://www.sahakariakhabar.com/cooperative-directory/tokha-janahit-saving-&-credit-cooperative,Bagmati
Satkanya Saving & Credi Cooperative Ltd,"Kapan, Kathmandu",English,14823520,satkanyasaving1@gmail.com,https://www.sahakariakhabar.com/cooperative-directory/satkanya-saving-&-credi-cooperative-ltd,Bagmati
Sana Kisan Krishi Sahakari,Kumpur Dhading,English,10690403,kumpursfcal@gmail.com,https://www.sahakariakhabar.com/cooperative-directory/sana-kisan-krishi-sahakari,Bagmati
Jiwanpur Sanakisan Krishi Sahakari Sanstha Ltd,Dhunibesi 3 puranodada Dhading,English,9841679409,sanakisanjiwanpur@gmail.com,https://www.sahakariakhabar.com/cooperative-directory/jiwanpur-sanakisan-krishi-sahakari-sanstha-ltd,Bagmati
Sanakisan Krishi Sahakari Sanstha Ltd,Siddhlekh 4 Salang Dhading,English,9851134684,gopalsilwal55@gmail.com,https://www.sahakariakhabar.com/cooperative-directory/sanakisan-krishi-sahakari-sanstha-ltd-1,Bagmati
Sanakisan Krishi Sahakari Sanstha Ltd,Jwalamukhi 7 Chainpur Dhading,English,9841579091,purnaaryal2016@gmail.com,https://www.sahakariakhabar.com/cooperative-directory/sanakisan-krishi-sahakari-sanstha-ltd,Bagmati
Rural Agriculture Development Cooperative LTd,"Chapagaun, Lalitpur Nepal",English,15265067,radclalitpur@gmail.com,https://www.sahakariakhabar.com/cooperative-directory/rural-agriculture-development-cooperative-ltd,Bagmati
Nepal Udhyami Saving & Credit Cooperative Ltd,"New Baneshwor, Kathmandu",English,15244249,nepaludhyami@gmail.com,https://www.sahakariakhabar.com/cooperative-directory/nepal-udhyami-saving-&-credit-cooperative-ltd,Bagmati
Risheshwor Saving & Creditt Cooperative Ltd,"Solymode, Kathmandu",English,14283010,risheshworsaccos@gmail.com,https://www.sahakariakhabar.com/cooperative-directory/risheshwor-saving-&-creditt-cooperative-ltd,Bagmati
Saptadev Saving & Credit Cooperative Ltd.,Budanilakantha 10 Kapan Kathmandu,English,14810542,saptadev@gmail.com,https://www.sahakariakhabar.com/cooperative-directory/saptadev-saving-&-credit-cooperative-ltd.,Bagmati
Om Trigajur multipurpose Cooperarive Ltd,Guheshwori marga 8 Kathmandu,English,15910675,omtrigajurmultipurpose@gmail.com,https://www.sahakariakhabar.com/cooperative-directory/om-trigajur-multipurpose-cooperarive-ltd,Bagmati
Maijubahal Multipurpose Cooperative,Maijubahal 7 Chabahil Kathmandu,English,14562807,maiju64bahal@gmail.com,https://www.sahakariakhabar.com/cooperative-directory/maijubahal-multipurpose-cooperative,Bagmati
Amarjyoti Saving & Credit Cooperative Ltd,suryabinayak 4 Dhadhikot Bhaktapur,English,16630323,amarjyotisaccos@gmail.com,https://www.sahakariakhabar.com/cooperative-directory/amarjyoti-saving-&-credit-cooperative-ltd,Bagmati
Janadhana Saving & Credit Co-operative,Kalimati  Kathmandu,English,14283684,janadhanasaccos2000@gmail.com,https://www.sahakariakhabar.com/cooperative-directory/janadhana-saving-credit-co-operative,Bagmati
Shree Chunne Bhairab Saving & Credir Cooperative Ltd,Kalimati 14 kuleshwor Kathmandu,English,15379793,info@sahakariakhabar.com,https://www.sahakariakhabar.com/cooperative-directory/shree-chunne-bhairab-saving-&-credir-cooperative-ltd,Bagmati
Aarjan Saving & Credit Cooperative Ltd,"madhyapur  thimi,-1 Lokanthali, bhaktapur",English,5639133,aarjansacos@gmail.com,https://www.sahakariakhabar.com/cooperative-directory/aarjan-saving-&-credit-cooperative-ltd,Bagmati
Changathali Saving &Credit Cooperative Ltd.,"Mahalaxmi 7, Changathali, Lalitpur",English,15266026,changathalisaving2018@gmail.com,https://www.sahakariakhabar.com/cooperative-directory/changathali-saving-&credit-cooperative-ltd.,Bagmati
Shree Harit Batika  Saving & Credit Cooperative Ltd.,"kathmandu, chuuchepati",English,15210407,info@sahakariakhabar.com,https://www.sahakariakhabar.com/cooperative-directory/shree-harit-batika-saving-&-credit-cooperative-ltd.,Bagmati
Bimarsha Saving & Credit Cooperative Ltd.,kathmandu -7 chabil,English,1556253,info@sahakariakhabar.com,https://www.sahakariakhabar.com/cooperative-directory/bimarsha-saving-&-credit-cooperative-ltd.,Bagmati
Thread Multipurpose Cooperative Ltd.,"Mahalaxmi-4, Imadol, lalitpur",English,18201500,info@threadmultipurpose.com,https://www.sahakariakhabar.com/cooperative-directory/thread-multipurpose-cooperative-ltd.,Bagmati
Shree Punarmilan  Multipurpose Cooperative Ltd.,"Mahalaxmi-8, Lubhu, Lalitpur",English,5580567,purnarmilan2042@gmail.com,https://www.sahakariakhabar.com/cooperative-directory/shree-punarmilan-multipurpose-cooperative-ltd.,Bagmati
Gorkha Bikas Saving & Credit Cooperative Ltd,"Banepa-7, Kavrepalanchowk",English,11662831,gorkhab@gmail.com,https://www.sahakariakhabar.com/cooperative-directory/gorkha-bikas-saving-&-credit-cooperative-ltd,Bagmati
Nobel Saving & Credit Co-operative Ltd.,"Banepa-10, Kavrepalanchok",English,11661411,nobelsaccos@gmail.comv,https://www.sahakariakhabar.com/cooperative-directory/nobel-saving-&-credit-co-operative-ltd.,Bagmati
Babira Multipurpose Cooperative Ltd,Kageshwori Manohara 4 mahantar KTM,English,15148016,babiramulticoops@gmail.com,https://www.sahakariakhabar.com/cooperative-directory/babira-multipurpose-cooperative-ltd-1,Bagmati
Dhanraj Multipurpose Cooperative Limited,"Pepsicola, Kathmandu-32",English,15916589,dhanraj.mcl@gmail.com,https://www.sahakariakhabar.com/cooperative-directory/dhanraj-multipurpose-cooperative-limited,Bagmati
Chiranjivi Saving & Credit Cooperative Ltd.,"dharan bazar , sunsari",English,33893067,info@sahakariakhabar.com,https://www.sahakariakhabar.com/cooperative-directory/chiranjivi-saving-&-credit-cooperative-ltd.,Koshi
Aathmauja  Saving & Credit Cooperative Ltd.,gairighaj -6 jhapa,English,23412006,aathmauja.cooperative2067@gmail.com,https://www.sahakariakhabar.com/cooperative-directory/aathmauja-saving-&-credit-cooperative-ltd.,Koshi
Rochdel Saving & Credit  Cooperative Ltd.,chabil kathmandu,English,14475199,info@sahakariakhabar.com,https://www.sahakariakhabar.com/cooperative-directory/rochdel-saving-&-credit-cooperative-ltd.,Bagmati
Shree  Kanchan Saving & Credit Cooperative Ltd.,"kaligandaki -6 ,chap ,syanja",English,9856014270,info@sahakariakhabar.com,https://www.sahakariakhabar.com/cooperative-directory/shree-kanchan-saving-&-credit-cooperative-ltd.,Gandaki
Subha Chandra  Surya Saving & Credit Cooperative Ltd.,"Urlabari-4, aaitabare ,Morang",English,21541394,subhachandrasurya7@gmail.com,https://www.sahakariakhabar.com/cooperative-directory/subha-chandra-surya-saving-&-credit-cooperative-ltd.,Koshi
Subhida Saving & Credit Cooperative Ltd.,thimi bhaktapur,English,13425778,info@sahakariakhabar.com,https://www.sahakariakhabar.com/cooperative-directory/subhida-saving-&-credit-cooperative-ltd.,Bagmati
Subhechecxa Saving & Credit Cooperative Ltd.,"surya binayak , bhaktapur",English,19823765,info@sahakariakhabar.com,https://www.sahakariakhabar.com/cooperative-directory/subhechecxa-saving-&-credit-cooperative-ltd.,Bagmati
Subha Saving & Credit Cooperative Ltd.,sallaghari bhaktapur,English,16610308,info@sahakariakhabar.com,https://www.sahakariakhabar.com/cooperative-directory/subha-saving-&-credit-cooperative-ltd.,Bagmati
Kalash Saving & Credit Cooperative Ltd.,madhyapur  thimi -9 bhaktapur,English,16636433,kalash066bode@gmail.com,https://www.sahakariakhabar.com/cooperative-directory/kalash-saving-&-credit-cooperative-ltd.,Bagmati
Kharan Saving & Credit Cooperative Ltd.,"ithari , sunsari",English,25582125,khanarsaccos02@gmail.com,https://www.sahakariakhabar.com/cooperative-directory/kharan-saving-&-credit-cooperative-ltd.,Koshi
Sharada Saving & Credit Cooperative Ltd.,"Sarada municipality -1,  salyan",English,97788,sharadacoop@gmail.com,https://www.sahakariakhabar.com/cooperative-directory/sharada-saving-&-credit-cooperative-ltd.,Karnali
Shramjivi Saving & Credit Cooperative Ltd.,sabaula -9 dhanusha,English,41401060,shrmijivisabaila@yahoo.com,https://www.sahakariakhabar.com/cooperative-directory/shramjivi-saving-&-credit-cooperative-ltd.,Madhesh
Shital Saving & Credit  Cooperative Ltd.,mahalaxmisthan lalitpur,English,5534683,info@sahakariakhabar.com,https://www.sahakariakhabar.com/cooperative-directory/shital-saving-&-credit-cooperative-ltd.,Bagmati
Shree Sharadamai Saving & Credit Cooperative Ltd.,"bagbazar, kathmandu",English,15351297,saccossharadamai@gmail.com,https://www.sahakariakhabar.com/cooperative-directory/shree-sharadamai-saving-&-credit-cooperative-ltd.,Bagmati
Orchid Saving & Credit Cooperative Ltd.,"old baneshwor ,kathmandu",English,14474890,info@sahakariakhabar.com,https://www.sahakariakhabar.com/cooperative-directory/orchid-saving-&-credit-cooperative-ltd.,Bagmati
Imanual Saving & Credit Cooperative Ltd.,"indrachowk  , kathmandu",English,14243949,info@sahakariakhabar.com,https://www.sahakariakhabar.com/cooperative-directory/imanual-saving-&-credit-cooperative-ltd.,Bagmati
United Hands Saving & Credit Cooperative Ltd.,balambu-12 chandragiri kathmandu,English,13414270,unitedhandsbalambu@gmail.com,https://www.sahakariakhabar.com/cooperative-directory/united-hands-saving-&-credit-cooperative-ltd.,Bagmati
Deurali Multipurpose Cooperative Ltd.,"satdobato, Lalitpur Nepal",English,15229720,deuralicooperative.global@gmail.com,https://www.sahakariakhabar.com/cooperative-directory/deurali-multipurpose-cooperative-ltd.,Bagmati
Tarakari Falful Saving & Credit Cooperative Ltd.,"kalimati, kathmandu",English,15123129,tarakariphalfool@gmail.com,https://www.sahakariakhabar.com/cooperative-directory/tarakari-falful-saving-credit-cooperative-ltd,Bagmati
Suvarna Bhumi Saving & Credit Cooperative Ltd.,"dhungedhara , kathmandu",English,14880786,suvarna2064@yahoo.com,https://www.sahakariakhabar.com/cooperative-directory/suvarna-bhumi-saving-&-credit-cooperative-ltd.,Bagmati
Nilo Aakash Saving & Credit Cooperative Ltd.,"gairigaun,kathmandu",English,14481917,niloaakash64@gmail.com,https://www.sahakariakhabar.com/cooperative-directory/nilo-aakash-saving-&-credit-cooperative-ltd.,Bagmati
Shree Siddhichandi Saving & Credit Cooperative Ltd.,kumaripati-19 lalitpur,English,15521341,siddhichandi@hotmail.com,https://www.sahakariakhabar.com/cooperative-directory/shree-siddhichandi-saving-&-credit-cooperative-ltd.,Bagmati
Ekikrit Saving & Credit Cooperative Ltd.,"gausala , kathmandu",English,15104101,meronaamkumarshrestha@gmail.com,https://www.sahakariakhabar.com/cooperative-directory/ekikrit-saving-&-credit-cooperative-ltd.,Bagmati
kantipur Saving & Credit Cooperative Ltd.,"gorkha complex ,minbhawan, kathmandu",English,14106550,kantipurcreditcooperativeltd@gmail.com,https://www.sahakariakhabar.com/cooperative-directory/kantipur-saving-&-credit-cooperative-ltd.,Bagmati
Pinnacal Saving & Credit Cooperative Ltd.,new road -22 kathmandu,English,15340758,pinnacle428@gmail.com,https://www.sahakariakhabar.com/cooperative-directory/pinnacal-saving-&-credit-cooperative-ltd.,Bagmati
Sugam Saving & Credit Cooperative Ltd.,"jagadol , kathmandu",English,15267079,sugam.email@gmail.com,https://www.sahakariakhabar.com/cooperative-directory/sugam-saving-&-credit-cooperative-ltd.,Bagmati
Champawati Saving & Credit Cooperative Ltd.,"gangabu-9 , kathmandu",English,15906224,champawatisaving@gmail.com,https://www.sahakariakhabar.com/cooperative-directory/champawati-saving-&-credit-cooperative-ltd.,Bagmati
Usha Kiran Saving & Credit Cooperative Ltd.,kalanki -14 kathmandu,English,15234436,ushakiran.coop@gmail.com,https://www.sahakariakhabar.com/cooperative-directory/usha-kiran-saving-&-credit-cooperative-ltd.,Bagmati
Sadbhab Multipurpose Cooperative Ltd.,"sankhamul , kathmandu",English,15900144,sadbhab077@gmail.com,https://www.sahakariakhabar.com/cooperative-directory/sadbhab-multipurpose-cooperative-ltd.,Bagmati
Sungava Saving & Credit Cooperative ltd.,"ratuwamai-6  sanischare , morang",English,9802706822,sungavasaving@gmail.com,https://www.sahakariakhabar.com/cooperative-directory/sungava-saving-&-credit-cooperative-ltd.,Koshi
Trinity Saving & Credit Cooperative Ltd.,balagu kathmandu,English,14986769,saccostrinity23@gmail.com,https://www.sahakariakhabar.com/cooperative-directory/trinity-saving-&-credit-cooperative-ltd.,Bagmati
Chandra Surya Saving & Credit Cooperative Ltd.,lagankhel -12 lalitpur,English,15550631,info@sahakariakhabar.com,https://www.sahakariakhabar.com/cooperative-directory/chandra-surya-saving-&-credit-cooperative-ltd.,Bagmati
Narsingha Saving & Credit Cooperative Ltd.,nakabahil-16 lalitpur,English,758473,info@sahakariakhabar.com,https://www.sahakariakhabar.com/cooperative-directory/narsingha-saving-&-credit-cooperative-ltd.,Bagmati
Sharad Saving & Credit Cooperative Ltd.,jagati bhaktapur,English,16610548,info@sahakariakhabar.com,https://www.sahakariakhabar.com/cooperative-directory/sharad-saving-&-credit-cooperative-ltd.,Bagmati
Kamdhunu Saving & Credit Cooperative Ltd.,"surya binayak ,chitpol  bhaktapur",English,17384883,info@sahakariakhabar.com,https://www.sahakariakhabar.com/cooperative-directory/kamdhunu-saving-&-credit-cooperative-ltd.,Bagmati
Creation Saving & Credit Cooperative Ltd.,"kageshwori manohara -9, kadaghari",English,14991557,creationsavingandcreditlimited@gmail.com,https://www.sahakariakhabar.com/cooperative-directory/creation-saving-&-credit-cooperative-ltd.,Bagmati
Gahana  Multipurpose Cooperative Ltd,kajeshwori manahara -9 kathmandu,English,14991024,gahanamultipurpose@gmail.com,https://www.sahakariakhabar.com/cooperative-directory/gahana-multipurpose-cooperative-ltd,Bagmati
Swabalambhi Saving & Credit Cooperative Ltd.,Birendranagar -4 surkhet,English,83522346,s.saccos.skt@gmail.com,https://www.sahakariakhabar.com/cooperative-directory/swabalambhi-saving-&-credit-cooperative-ltd.,Karnali
Akarshan Saving &  Credit Cooperative Ltd.,Anamnagar kathmandu,English,14102528,akarshansoccl@gmail.com,https://www.sahakariakhabar.com/cooperative-directory/akarshan-saving-&-credit-cooperative-ltd.,Bagmati
Kathmandu Chandrigiri  Multipurpose Cooperative Ltd.,"chandrajiri -12  balambhu, kathmandu",English,13414928,kathmanduchandragiri@gmail.com,https://www.sahakariakhabar.com/cooperative-directory/kathmandu-chandrigiri-multipurpose-cooperative-ltd.,Bagmati
Manmuri Agriculture Cooperative Ltd.,"kajeshwori manahara -8  jatthghar , kathmandu",English,15148199,manamurikrishi@gmail.com,https://www.sahakariakhabar.com/cooperative-directory/manmuri-agriculture-cooperative-ltd.,Bagmati
Helix  Saving & Credit Cooperative Ltd.,"kageshwori manohara -9, kadaghari",English,14991491,helixsavingltd@gmail.com,https://www.sahakariakhabar.com/cooperative-directory/helix-saving-credit-cooperative-ltd,Bagmati
Kabeli Multipurpose Cooperative Ltd.,"pepsikola, kathmandu",English,15156320,info@sahakariakhabar.com,https://www.sahakariakhabar.com/cooperative-directory/kabeli-multipurpose-cooperative-ltd.,Bagmati
Shree Amarjyoti Saving & Credit Cooperative Ltd.,butwal -11 rupendehi,English,55684753,info@sahakariakhabar.com,https://www.sahakariakhabar.com/cooperative-directory/shree-amarjyoti-saving-&-credit-cooperative-ltd.,Lumbini
Siddibinayak Multipurpose Cooperative Ltd.,"Urlabari-5,Morang",English,21540660,siddibinaykcoop@gmail.com,https://www.sahakariakhabar.com/cooperative-directory/siddibinayak-multipurpose-cooperative-ltd.,Koshi
Aadarsha Saving & Credit Cooperative Ltd.,"bharatpur ,chitwan",English,56524169,aadarshasaving@gmail.com,https://www.sahakariakhabar.com/cooperative-directory/aadarsha-saving-&-credit-cooperative-ltd.,Bagmati
Paurakhe  Multipurpose Cooperative Ltd.,"nepalgung, bake",English,81551041,paurakheemt@gmail.com,https://www.sahakariakhabar.com/cooperative-directory/paurakhe-multipurpose-cooperative-ltd.,Lumbini
Shree Matribhumi Multipurpose Cooperative Ltd.,"bhuwaqneshwor marg , butwal -4 rupendehi",English,71544821,info@sahakariakhabar.com,https://www.sahakariakhabar.com/cooperative-directory/shree-matribhumi-multipurpose-cooperative-ltd.,Lumbini
Pahuna Multipurpose Cooperative Ltd.,"Radhe Radhe -9, Bhaktapur",English,15910234,info@sahakariakhabar.com,https://www.sahakariakhabar.com/cooperative-directory/pahuna-multipurpose-cooperative-ltd.-4,Bagmati
Goals Saving &  Credit  Coopertive Ltd.,"chauni-15, kathmandu",English,14278140,info@sahakariakhabar.com,https://www.sahakariakhabar.com/cooperative-directory/goals-saving-&-credit-coopertive-ltd.,Bagmati
Astalaxmi  Saving & Credit Cooperative Ltd.,patharisanishchare morang,English,21555528,astalaxmi062@gmail.com,https://www.sahakariakhabar.com/cooperative-directory/astalaxmi-saving-&-credit-cooperative-ltd.,Koshi
Jana Shakti Saving & Credit Cooperative Ltd.,"Birtamode, Jhapa Nepal",English,23933344,janashakticoop2014@gmail.com,https://www.sahakariakhabar.com/cooperative-directory/jana-shakti-saving-&-credit-cooperative-ltd.,Koshi
Sarba Sakti Saving & Credit Cooperative Ltd.,"bharatpur-2, chitwan",English,56590525,sarbasakti68@gmail.com,https://www.sahakariakhabar.com/cooperative-directory/sarba-sakti-saving-&-credit-cooperative-ltd.,Bagmati
Good Will Saving & Credit Cooperative Ltd.,"shankhamul, baneshwor",English,14481746,info@goodwillsaving.com.np,https://www.sahakariakhabar.com/cooperative-directory/good-will-saving-&-credit-cooperative-ltd.,Bagmati
Chaughada Saving & Credit Cooperative Ltd.,"hetauda-6, chaughada",English,57530226,sahakari.chaughada@gmail.com,https://www.sahakariakhabar.com/cooperative-directory/chaughada-saving-&-credit-cooperative-ltd.,Bagmati
Shree Sagarmatha Saving & Credit Cooperative Ltd.,"Urlabari-5,Morang",English,21540103,saccossagarmatha@gmail.com,https://www.sahakariakhabar.com/cooperative-directory/shree-sagarmatha-saving-&-credit-cooperative-ltd.,Koshi
Junar Central Cooperative Union ltd,"Sindhuli, Kathmandu",English,476489653,sindhuliko.junar@yahoo.com,https://www.sahakariakhabar.com/cooperative-directory/junar-central-cooperative-union-ltd,Bagmati
Srijana saving & Credit Cooperative  ltd.,balkot -bhaktapur,English,15639904,info@sahakariakhabar.com,https://www.sahakariakhabar.com/cooperative-directory/srijana-saving-&-credit-cooperative-ltd.,Bagmati
Aphanta Saving & Credit Cooperative Ltd.,"minbhawan ,kathmandu",English,14106532,aphantaco@gmail.com,https://www.sahakariakhabar.com/cooperative-directory/aphanta-saving-&-credit-cooperative-ltd.,Bagmati
Binayak sewamulak Multipurpose  Cooperative Ltd.,"bhaktapur ,thimi",English,15093591,info@sahakariakhabar.com,https://www.sahakariakhabar.com/cooperative-directory/binayak-sewamulak-multipurpose-cooperative-ltd.,Bagmati
Shankhadhar Saving & Credit Cooperative Ltd.,Thimi  bhaktapur,English,15093507,shankhadhar-s@gmail.com,https://www.sahakariakhabar.com/cooperative-directory/shankhadhar-saving-&-credit-cooperative-ltd.,Bagmati
Ujyalo Saving & Credit Cooperative Ltd.,"surya binayak , bhaktapur",English,16612362,ujyalosaccos@gmail.com,https://www.sahakariakhabar.com/cooperative-directory/ujyalo-saving-&-credit-cooperative-ltd.,Bagmati
Sumarga Saving & Credit Cooperative Ltd.,"surya binayak , bhaktapur",English,16611549,info@sahakariakhabar.com,https://www.sahakariakhabar.com/cooperative-directory/sumarga-saving-&-credit-cooperative-ltd.,Bagmati
Hausala Multipurpose Cooperative Ltd.,"satdobato, Lalitpur Nepal",English,15540690,hausalacoop@gmail.com,https://www.sahakariakhabar.com/cooperative-directory/hausala-multipurpose-cooperative-ltd.,Bagmati
Katunje Cooperative Ltd.,"suryabinayak-5 ghalate , bhaktapur",English,15092214,katunjecooperativeltd@gmail.com,https://www.sahakariakhabar.com/cooperative-directory/katunje-cooperative-ltd.,Bagmati
Saptakoshi  Saving & Credit Cooperative Ltd.,"satdobato ,chapagaumod,lalitpur",English,15152351,saptakoshisavings@yahoo.com,https://www.sahakariakhabar.com/cooperative-directory/saptakoshi-saving-&-credit-cooperative-ltd.,Bagmati
Silk Saving & Credit Cooperative Ltd.,shantinagar -31 bhandari tower kathmandu,English,14622348,silksaving961@gmail.com,https://www.sahakariakhabar.com/cooperative-directory/silk-saving-&-credit-cooperative-ltd.,Bagmati
Samuhik Prayas Multipurpose Cooperative Ltd.,"Kathmandu, 22 khichapokhari pashupatiplaza",English,15916544,spcooperative1@gmail.com,https://www.sahakariakhabar.com/cooperative-directory/samuhik-prayas-multipurpose-cooperative-ltd.,Bagmati
Malika Multipurpose Cooperative Ltd.,"surya binayak-8 , bhaktapur",English,16623022,malikamultipurpose2078@gmail.com,https://www.sahakariakhabar.com/cooperative-directory/malika-multipurpose-cooperative-ltd.,Bagmati
Himali Brahami Mahila Saving & Credit Cooperative Ltd.,"bharatpur ,chitwan",English,56523639,himalisaccos@gmail.com,https://www.sahakariakhabar.com/cooperative-directory/himali-brahami-mahila-saving-&-credit-cooperative-ltd.,Bagmati
Layaku Ludhwaka Saving & Credit Cooperative Ltd,Bhaktapur Muncipality Gapali 4 Bhaktapur,English,16619129,layaku.ludhwaka@gmail.com,https://www.sahakariakhabar.com/cooperative-directory/layaku-ludhwaka-saving-&-credit-cooperative-ltd,Bagmati
Megha  Saving & Credit Cooperative Ltd.,"pokhara . newroad ,KASKI",English,61527288,info@sahakariakhabar.com,https://www.sahakariakhabar.com/cooperative-directory/megha-saving-&-credit-cooperative-ltd.,Gandaki
syuchatar Saving & Credit Cooperative Ltd.,"syuchatar ,kathmandu",English,15198279,syuchatar.saving@yahoo.com,https://www.sahakariakhabar.com/cooperative-directory/syuchatar-saving-&-credit-cooperative-ltd.,Bagmati
Bhirkuti Multipurpose Cooperative Ltd.,baneshwor kathmandu,English,14104193,info@sahakariakhabar.com,https://www.sahakariakhabar.com/cooperative-directory/bhirkuti-multipurpose-cooperative-ltd.-1,Bagmati
Madhya Nepal Saving & Credit Cooperative Ltd.,"pragatinagar, nawalparasi",English,78575408,mnsaccos20542@gmail.com,https://www.sahakariakhabar.com/cooperative-directory/madhya-nepal-saving-credit-cooperative-ltd,Lumbini
Panchashil Multipurpose Cooperative Ltd.,"lalitpur -19,kumaripati",English,15408585,info@panchashilmcl.com.np,https://www.sahakariakhabar.com/cooperative-directory/panchashil-multipurpose-cooperative-ltd.,Bagmati
Jhapa District Cooperative Federation Ltd.,bhadrapur-5 jhapa,English,23546685,jhapacoopsfed@yahoo.com,https://www.sahakariakhabar.com/cooperative-directory/jhapa-district-cooperative-federation-ltd.,Koshi
Samatra Saving & Credit Cooperative Ltd.,"minbhawan, new baneshwor , kathmandu",English,14462514,samatrasaccos@yahoo.com,https://www.sahakariakhabar.com/cooperative-directory/samatra-saving-&-credit-cooperative-ltd.,Bagmati
Shree Bihani Saving & Credit Cooperative Ltd.,mechinagar -14 Jhapa,English,44872628,info@sahakariakhabar.com,https://www.sahakariakhabar.com/cooperative-directory/shree-bihani-saving-credit-cooperative-ltd,Koshi
Danphe Saving & Credit Cooperative Ltd.,damak-10 Jhapa,English,23580928,danphecooperative@gmail.com,https://www.sahakariakhabar.com/cooperative-directory/danphe-saving-credit-cooperative-ltd,Koshi
Sagun Saving & Credit Cooperative Ltd.,takhurbaba-5  bardiya,English,9816578896,sagunsaccos@gmail.com,https://www.sahakariakhabar.com/cooperative-directory/sagun-saving-&-credit-cooperative-ltd.-1,Lumbini
Hamro Chahana Saving & Credit Cooperative Ltd.,"pasupati plaza , new road , kathmandu",English,15357350,hamrosacccos32@gmail.com,https://www.sahakariakhabar.com/cooperative-directory/hamro-chahana-saving-&-credit-cooperative-ltd.,Bagmati
Shree Binayak Saving & Credit Cooperative Ltd.,badganja-4 kapilbastu,English,76550368,shreevinayak70@gmail.com,https://www.sahakariakhabar.com/cooperative-directory/shree-binayak-saving-&-credit-cooperative-ltd.-2,Bagmati
Shree Binayak Saving & Credit Cooperative Ltd.,maduban-4 sankhadhar chowk,English,16634722,info@sahakariakhabar.com,https://www.sahakariakhabar.com/cooperative-directory/shree-binayak-saving-&-credit-cooperative-ltd.-1,Bagmati
Shree Binayak Saving & Credit Cooperative Ltd.,"Katunje,-8  Bhaktapur Nepal",English,44567557,info@sahakariakhabar.com,https://www.sahakariakhabar.com/cooperative-directory/shree-binayak-saving-&-credit-cooperative-ltd.,Bagmati
Hamro Bhakari Saving & Credit Cooperative Ltd.,boudha kathmandu,English,14488301,info@sahakariakhabar.com,https://www.sahakariakhabar.com/cooperative-directory/hamro-bhakari-saving-&-credit-cooperative-ltd.,Bagmati
Indrayani Saving & Credit Cooperative Ltd.,"hakufoyati , bhaktapur",English,16616837,indrayanisaccos@gmail.com,https://www.sahakariakhabar.com/cooperative-directory/indrayani-saving-&-credit-cooperative-ltd.,Bagmati
Heet Saving & Credit Cooperative Ltd.,"jagati , kathmandu",English,16619158,heetsaccos@gmail.com,https://www.sahakariakhabar.com/cooperative-directory/heet-saving-&-credit-cooperative-ltd.,Bagmati
Aakriti Saving & Credit Cooperative Ltd.,"fasku , kathmandu",English,14039613,aakritsccl@gmail.com,https://www.sahakariakhabar.com/cooperative-directory/aakriti-saving-&-credit-cooperative-ltd.,Bagmati
Asian Star Saving & Credit Cooperative Ltd.,banepa -7  kavrepalanchok,English,11660036,asianstarsaccos@gmail.com,https://www.sahakariakhabar.com/cooperative-directory/asian-star-saving-&-credit-cooperative-ltd.,Bagmati
Suryadarshan Saving & Credit Cooperative Ltd.,"bharatpur -4, chitwan",English,56412033,info@sahakariakhabar.com,https://www.sahakariakhabar.com/cooperative-directory/suryadarshan-saving-&-credit-cooperative-ltd.,Bagmati
Bachan Saving & Credit Cooperative Ltd.,"kathmandu-30 ,dillibazar",English,14434320,savingbachan@gmail.com,https://www.sahakariakhabar.com/cooperative-directory/bachan-saving-&-credit-cooperative-ltd.,Bagmati
Dharapani Saving & Credit Cooperative Ltd.,"bharatpur -4, chitwan",English,56513224,info@sahakariakhabar.com,https://www.sahakariakhabar.com/cooperative-directory/dharapani-saving-&-credit-cooperative-ltd.,Bagmati
Abiral Saving & Credit  Cooperative Ltd.,"koteshwor , kathmandu",English,15199246,abiralsaccos@gmail.com,https://www.sahakariakhabar.com/cooperative-directory/abiral-saving-&-credit-cooperative-ltd.,Bagmati
Pirthivi Multipurpose Cooperative Ltd.,"pokhara-8 , kaski",English,61584690,prithvisaving@gmail.com,https://www.sahakariakhabar.com/cooperative-directory/pirthivi-multipurpose-cooperative-ltd.,Gandaki
Hamro Namuna Saving & Credit Cooperative  Ltd.,lagankhel  lalitpur,English,15545229,hamronamunasaccos@yahoo.com,https://www.sahakariakhabar.com/cooperative-directory/hamro-namuna-saving-&-credit-cooperative-ltd.,Bagmati
Star Saving & Credit Cooperative Ltd.,"kumaripati , lalitpur",English,97715008725,hr@starsaving.com.np,https://www.sahakariakhabar.com/cooperative-directory/star-saving-&-credit-cooperative-ltd.,Bagmati
Jaya Shree Bhairab Saving & Credit Cooperative Ltd.,Gokarneshwor -5  kathmandu,English,14800975,info@sahakariakhabar.com,https://www.sahakariakhabar.com/cooperative-directory/jaya-shree-bhairab-saving-&-credit-cooperative-ltd.,Bagmati
Golden Rose Multipurpose Cooperative Ltd.,"pulchowk-3, lalitpur",English,15009138,info@sahakariakhabar.com,https://www.sahakariakhabar.com/cooperative-directory/golden-rose-multipurpose-cooperative-ltd.,Bagmati
Aagaman Saving  & Credit Cooperative Ltd,suryabinayak,English,6612874,info@sahakariakhabar.com,https://www.sahakariakhabar.com/cooperative-directory/aagaman-saving-&-credit-cooperative-ltd,Bagmati
Sundar  Saving & Credit Cooperative Ltd.,"madhyapur  thimi ,-15 sundarbazar bhaktapur",English,97716639174,sundarsacos@hotmail.com,https://www.sahakariakhabar.com/cooperative-directory/sundar-saving-&-credit-cooperative-ltd.,Bagmati
Shree shuva laxmi  Cooperative Ltd.,"gairadaha , jhapa",English,23480236,phanindradahal92@yahoo.com,https://www.sahakariakhabar.com/cooperative-directory/shree-shuva-laxmi-cooperative-ltd.,Koshi
Jyotipunja Saving & Credit Cooperative Ltd.,new baneshwor -34 kathmandu,English,14780985,jyotipunja123@gmail.com,https://www.sahakariakhabar.com/cooperative-directory/jyotipunja-saving-&-credit-cooperative-ltd.,Bagmati
Swostik Saving & Credit Cooperative Ltd.,"madhyapur  thimi ,-, bhaktapur",English,16633067,swostik67@yahoo.com,https://www.sahakariakhabar.com/cooperative-directory/swostik-saving-&-credit-cooperative-ltd.,Bagmati
Bikash Multipurpose Cooperative Ltd.,"koteshwor , kathmandu",English,14600971,bikashbachat971@gmail.com,https://www.sahakariakhabar.com/cooperative-directory/bikash-multipurpose-cooperative-ltd.,Bagmati
Aarya Agriculture Cooperative Ltd.,"dewangunj , sunsari",English,13489049,info@sahakariakhabar.com,https://www.sahakariakhabar.com/cooperative-directory/aarya-agriculture-cooperative-ltd.,Koshi
Himal Saving &  Credit Cooperative Ltd.,"ilam, nepal",English,27521348,himalsaccos287@gmail.com,https://www.sahakariakhabar.com/cooperative-directory/himal-saving-&-credit-cooperative-ltd.,Koshi
Doleshwor Multipurpose Cooperative Ltd.,koteshwor -32 kathmandu,English,14602790,dmpc2072@gmail.com,https://www.sahakariakhabar.com/cooperative-directory/doleshwor-multipurpose-cooperative-ltd.,Bagmati
Jyoti Mirmire Samuhik Saving & Credit Cooperative Ltd.,panauti -6 kavrepalanchowk,English,97711440692,info@jmsaccos.coop.np,https://www.sahakariakhabar.com/cooperative-directory/jyoti-mirmire-samuhik-saving-&-credit-cooperative-ltd.,Bagmati
Shramik  Janautthan Saving & Credit Cooperative Ltd.,banepa -6  kavrepalanchok,English,11661497,info@sahakariakhabar.com,https://www.sahakariakhabar.com/cooperative-directory/shramik-janautthan-saving-&-credit-cooperative-ltd.,Bagmati
Shubha Saving & Credit Cooperative Ltd.,sallaghari bhaktapur,English,16610308,avinashsth3@gmail.com,https://www.sahakariakhabar.com/cooperative-directory/shubha-saving-&-credit-cooperative-ltd.,Bagmati
Compass Saving & Credit Cooperative Ltd.,kathmandu -7 chabil,English,14461311,compasssahakari@gmail.com,https://www.sahakariakhabar.com/cooperative-directory/compass-saving-&-credit-cooperative-ltd.,Bagmati
Bhaktapur District Saving & Credit Cooperative Union Ltd.,surya binayak-6  bhaktapur,English,16226734,bktsaccu@gmail.com,https://www.sahakariakhabar.com/cooperative-directory/bhaktapur-district-saving-&-credit-cooperative-union-ltd.,Bagmati
Jharana Saving & Credit Cooperative Ltd.,"satdobato,-15 Lalitpur Nepal",English,15538947,info@sahakariakhabar.com,https://www.sahakariakhabar.com/cooperative-directory/jharana-saving-&-credit-cooperative-ltd.,Bagmati
Chandrodaya Multipurpose Cooperative Ltd.,"surya binayak-6 , bhaktapur",English,15092602,shreechandrodaya@gmail.com,https://www.sahakariakhabar.com/cooperative-directory/chandrodaya-multipurpose-cooperative-ltd.,Bagmati
Suryodaya Saving & Credit Cooperative Ltd.,"new baneshwor , kathmandu",English,14491799,info@sahakariakhabar.com,https://www.sahakariakhabar.com/cooperative-directory/suryodaya-saving-&-credit-cooperative-ltd.-1,Bagmati
Manjari Multipurpose Cooperative Ltd.,Satdobato-15 lalitpur,English,15554053,manjarimultipurposecoopltd@gmail.com,https://www.sahakariakhabar.com/cooperative-directory/manjari-multipurpose-cooperative-ltd.,Bagmati
Sadashya Sewa Multipurpose Cooperative Ltd.,"satdobato, Lalitpur Nepal",English,15541203,sadashyasewa@gmail.com,https://www.sahakariakhabar.com/cooperative-directory/sadashya-sewa-multipurpose-cooperative-ltd.,Bagmati
Abhimanyu Multipurpose Cooperative Ltd.,pepsikola -32 kathmandu,English,14992121,info@sahakariakhabar.com,https://www.sahakariakhabar.com/cooperative-directory/abhimanyu-multipurpose-cooperative-ltd.,Bagmati
Mahasakti Saving & Credit Cooperative Ltd.,jorpati -3 kathmandu +,English,14914269,mahasaktisaccos@yahoo.com,https://www.sahakariakhabar.com/cooperative-directory/mahasakti-saving-&-credit-cooperative-ltd.,Bagmati
Bhawani Saving & Credit Cooperative ltd.,"jaleshwor -2 ,mahotari",English,44520394,bhawanisaving@yahoo.com,https://www.sahakariakhabar.com/cooperative-directory/bhawani-saving-&-credit-cooperative-ltd.-1,Madhesh
Saraswati Saving & Credit Cooperative Ltd.,"dadakharka priti-5 , ramechap",English,602115571,info@sahakariakhabar.com,https://www.sahakariakhabar.com/cooperative-directory/saraswati-saving-&-credit-cooperative-ltd.,Bagmati
Abhinna Multipurpose Co-operative Limited,"Mahalaxmi Muncipality -14 Satdobato, Lalitpur",English,15152076,coopamcl67@gmail.com,https://www.sahakariakhabar.com/cooperative-directory/abhinna-multipurpose-co-operative-limited,Bagmati
Gorkha Saving & Credit Cooperative Ltd,"Talchhikhel, Lalitpur",English,15152404,gorkhasaving2054@gmail.com,https://www.sahakariakhabar.com/cooperative-directory/gorkha-saving-credit-cooperative-ltd,Bagmati
Sakrriyata Multipurpose Cooperative Ltd,satdobato 15 Lalitpur,English,15524526,sakrriyatamultipurpose031@gmail.com,https://www.sahakariakhabar.com/cooperative-directory/sakrriyata-multipurpose-cooperative-ltd,Bagmati
Chaturbhujeshwor Saving & Credit Cooperative Ltd,satdobato 15 Lalitpur,English,15544565,chaturbhujeshwor@gmail.com,https://www.sahakariakhabar.com/cooperative-directory/chaturbhujeshwor-saving-&-credit-cooperative-ltd,Bagmati
Bishandevi Multipurpose Cooperative Ltd,satdobato 15 Lalitpur,English,15530119,bishandevicooperative@gmail.com,https://www.sahakariakhabar.com/cooperative-directory/bishandevi-multipurpose-cooperative-ltd,Bagmati
Maa Bhagawati Multipurpose Cooperative Ltd,satdobato 15 Lalitpur,English,15520246,info@sahakariakhabar.com,https://www.sahakariakhabar.com/cooperative-directory/maa-bhagawati-multipurpose-cooperative-ltd,Bagmati
Sinchit Saving & Credit Cooperative ltd.,"lalitpur-15, satdobato",English,55541154,cooperativesinchit@yahoo.com,https://www.sahakariakhabar.com/cooperative-directory/sinchit-saving-&-credit-cooperative-ltd.,Bagmati
Golden Gate Multipurpose Cooperative Ltd.,"lalitpur-15, satdobato",English,15549233,goldengatempcl@gmail.com,https://www.sahakariakhabar.com/cooperative-directory/golden-gate-multipurpose-cooperative-ltd.,Bagmati
Baba Saving & Credit cooperative  Ltd.,sankhadhar chowk  madhyapur thimi -13 bhaktapur,English,15093580,babacooperative@yahoo.com,https://www.sahakariakhabar.com/cooperative-directory/baba-saving-credit-cooperative-ltd,Bagmati
Gangajal Saving & Credit Cooperative ltd.,koteshwor 35- kathmandu,English,14612566,gangajalsaving@gmail.com,https://www.sahakariakhabar.com/cooperative-directory/gangajal-saving-credit-cooperative-ltd,Bagmati
Karmana Saving & Credit Cooperative Ltd.,Satdobato lalitpur,English,15151801,karmanasahakari@gmail.com,https://www.sahakariakhabar.com/cooperative-directory/karmana-saving-&-credit-cooperative-ltd.,Bagmati
Sagun Saving & Credit Cooperative ltd.,"belchowk , chitwan",English,56571276,sagunsaccos@yahoo.com,https://www.sahakariakhabar.com/cooperative-directory/sagun-saving-&-credit-cooperative-ltd.,Bagmati
Bindabasini Saving & Credit Cooperative ltd.,"chandranigahapur , rautahat",English,55657885,info@sahakariakhabar.com,https://www.sahakariakhabar.com/cooperative-directory/bindabasini-saving-credit-cooperative-ltd,Madhesh
Nawa Bikas Saving & Credit Cooperative ltd,"chandranigahapur , rautahat",English,55540734,nawabikas@gmail.com,https://www.sahakariakhabar.com/cooperative-directory/nawa-bikas-saving-&-credit-cooperative-ltd,Madhesh
Yatayat Majadur Saving &  Credit Coopeerative  Ltd.,"chandranigahapur  ,rautahat",English,476823562,info@sahakariakhabar.com,https://www.sahakariakhabar.com/cooperative-directory/yatayat-majadur-saving-&-credit-coopeerative-ltd.,Madhesh
Everest Saving & Credit Cooperative Ltd.,narayangad chitwan,English,44959289,info@sahakariakhabar.com,https://www.sahakariakhabar.com/cooperative-directory/everest-saving-&-credit-cooperative-ltd.,Bagmati
Kuti Saving & Credit Cooperative Ltd.,dharan sunsari,English,13845853,info@sahakariakhabar.com,https://www.sahakariakhabar.com/cooperative-directory/kuti-saving-&-credit-cooperative-ltd.,Koshi
Chundevi Saving & Credit  Cooperative Ltd.,Thankot -8 kathmandu,English,18327337,info@sahakariakhabar.com,https://www.sahakariakhabar.com/cooperative-directory/chundevi-saving-&-credit-cooperative-ltd.,Bagmati
Prabuddha Saving & Credit Cooperative Ltd.,balagu kathmandu,English,14386388,prabuddhasc@gmail.com,https://www.sahakariakhabar.com/cooperative-directory/prabuddha-saving-&-credit-cooperative-ltd.,Bagmati
Himalayan Saving & Credit Cooperative Ltd.,"surya binayak , bhaktapur",English,15092803,himalayansaving@gmail.com,https://www.sahakariakhabar.com/cooperative-directory/himalayan-saving-credit-cooperative-ltd,Bagmati
Bheri Saving & Credit Cooperative Ltd.,"nepalgung, bake",English,46723832,info@sahakariakhabar.com,https://www.sahakariakhabar.com/cooperative-directory/bheri-saving-&-credit-cooperative-ltd.,Lumbini
Samghauta Agriculture Cooperative Ltd.,"bharatpur ,chitwan",English,14780458,info@sahakariakhabar.com,https://www.sahakariakhabar.com/cooperative-directory/samghauta-agriculture-cooperative-ltd.,Bagmati
Sahayoji Saving & Credit Cooperative Ltd.,"tulsipur-5, dang",English,82521783,sahayojisaccos@gmail.com,https://www.sahakariakhabar.com/cooperative-directory/sahayoji-saving-credit-cooperative-ltd,Lumbini
Pipalbot Saving & Credit Cooperative Ltd.,Birendranagar -4 surkhet,English,83523742,pipalbotsaccos.059@gmail.com,https://www.sahakariakhabar.com/cooperative-directory/pipalbot-saving-&-credit-cooperative-ltd.,Karnali
Briti Bikash Agriculture Cooperative Ltd.,"kohalpur-10, chatar, bake",English,45478415,info@sahakariakhabar.com,https://www.sahakariakhabar.com/cooperative-directory/briti-bikash-agriculture-cooperative-ltd.,Lumbini
Everest Agriculture Cooperative Ltd.,"samghana ,baudhanath , kathmandu",English,89493006,info@sahakariakhabar.com,https://www.sahakariakhabar.com/cooperative-directory/everest-agriculture-cooperative-ltd.,Bagmati
Kisandal Saving & Credit Cooperative Ltd.,chabil kathmandu,English,15548674,info@sahakariakhabar.com,https://www.sahakariakhabar.com/cooperative-directory/kisandal-saving-credit-cooperative-ltd,Bagmati
Royal Multipurpose Cooperative Ltd.,"Basundhara, Kathmandu Nepal",English,14954046,info@royalcooperative.com.np,https://www.sahakariakhabar.com/cooperative-directory/royal-multipurpose-cooperative-ltd.,Bagmati
Raniban Agriculture Cooperative Ltd.,champadevi -10 raniban okhaldhunga,English,77895984,info@sahakariakhabar.com,https://www.sahakariakhabar.com/cooperative-directory/raniban-agriculture-cooperative-ltd.,Koshi
Aayam Saving  & Credit Cooperative Ltd.,"thankot, kathmandu",English,14316051,aayamsavingthankot@gmail.com,https://www.sahakariakhabar.com/cooperative-directory/aayam-saving-&-credit-cooperative-ltd.,Bagmati
Hatemalo Saving & Credit Cooperative Ltd.,"besisahar,lamjung",English,66520915,hatemalo.saccos@gmail.com,https://www.sahakariakhabar.com/cooperative-directory/hatemalo-saving-&-credit-cooperative-ltd.-1,Gandaki
Hilltop Junar Multipurpose Cooperative Ltd.,chabil kathmandu,English,14785549,info@sahakariakhabar.com,https://www.sahakariakhabar.com/cooperative-directory/hilltop-junar-multipurpose-cooperative-ltd.,Bagmati
Nispachya Saving & Credit Cooperative Ltd.,butwal -10 rupandehi,English,71438280,info@sahakariakhabar.com,https://www.sahakariakhabar.com/cooperative-directory/nispachya-saving-&-credit-cooperative-ltd.,Lumbini
Janayoj Saving & Credit Cooperative Ltd.,"new baneshwor-10, kathmandu",English,14585686,info@sahakariakhabar.com,https://www.sahakariakhabar.com/cooperative-directory/janayoj-saving-&-credit-cooperative-ltd.,Bagmati
Pathivara Saving & Credit Cooperative Ltd.,fathbazar  makwanpur,English,78745647,info@sahakariakhabar.com,https://www.sahakariakhabar.com/cooperative-directory/pathivara-saving-&-credit-cooperative-ltd.,Bagmati
Shree Sundar Bazar Multipurpose Cooperative Ltd.,sundarbagar-7 lamjung,English,66402074,info@sahakariakhabar.com,https://www.sahakariakhabar.com/cooperative-directory/shree-sundar-bazar-multipurpose-cooperative-ltd.,Gandaki
Image Saving & Credit Cooperative Ltd.,lagankhel  lalitpur,English,15533308,imagesaccos@gmail.com,https://www.sahakariakhabar.com/cooperative-directory/image-saving-&-credit-cooperative-ltd.,Bagmati
Arudima  Saving & Credit  Cooperative Ltd.,lagankhel  lalitpur,English,5523487,arunimasaccos@gmail.com,https://www.sahakariakhabar.com/cooperative-directory/arudima-saving-&-credit-cooperative-ltd.,Bagmati
Kalika Multipurpose Cooperative Ltd.,"rara,jumla",English,87690089,kalikaccltd@gmail.com,https://www.sahakariakhabar.com/cooperative-directory/kalika-multipurpose-cooperative-ltd.,Karnali
Amardeep Saving & Credit Cooperative Ltd,narayangad chitwan,English,56527794,info@sahakariakhabar.com,https://www.sahakariakhabar.com/cooperative-directory/amardeep-saving-&-credit-cooperative-ltd,Bagmati
Balewa Saving & Credit Cooperative Ltd.,"narayansthan, baglung",English,68413023,balewamoney@gmail.com,https://www.sahakariakhabar.com/cooperative-directory/balewa-saving-&-credit-cooperative-ltd.,Gandaki
Cyc Saving & Credit Cooperative Ltd.,"tarbesi , baglung",English,47859855,info@sahakariakhabar.com,https://www.sahakariakhabar.com/cooperative-directory/cyc-saving-&-credit-cooperative-ltd.,Gandaki
Hamro Bittia Multipurpose Cooperative Ltd.,baneshwor kathmandu,English,15911231,hamrobittya@gmail.com,https://www.sahakariakhabar.com/cooperative-directory/hamro-bittia-multipurpose-cooperative-ltd.,Bagmati
Gria Laxmi Saving & Credit Cooperative Ltd.,"birjung , parsa",English,1526895,info@sahakariakhabar.com,https://www.sahakariakhabar.com/cooperative-directory/gria-laxmi-saving-credit-cooperative-ltd,Madhesh
Grihalaxmi Saving & Credit Cooperative Ltd.,"nepalgung, bake",English,17488488,info@sahakariakhabar.com,https://www.sahakariakhabar.com/cooperative-directory/grihalaxmi-saving-&-credit-cooperative-ltd.,Lumbini
Sipsil Saving & Credit Cooperative Ltd.,"guheshwori, kathmandu",English,14114578,info@sahakariakhabar.com,https://www.sahakariakhabar.com/cooperative-directory/sipsil-saving-&-credit-cooperative-ltd.,Bagmati
Pratistha Agriculture Cooperative Ltd.,pachkhal-3 kavrepalanchowk,English,11499241,pratisthaagricoop@gmail.com,https://www.sahakariakhabar.com/cooperative-directory/pratistha-agriculture-cooperative-ltd.,Bagmati
Shuva Laxmi Saving & Credit Cooperative Ltd.,"Budanilakantha,  kathmandu",English,14822197,info@sahakariakhabar.com,https://www.sahakariakhabar.com/cooperative-directory/shuva-laxmi-saving-&-credit-cooperative-ltd.,Bagmati
New Eastern Multipurpose Cooperative Ltd.,pepsikola -32 kathmandu,English,15908974,neweastern77@gmail.com,https://www.sahakariakhabar.com/cooperative-directory/new-eastern-multipurpose-cooperative-ltd.,Bagmati
Sanima Saving & Credit Cooperative Ltd.,"satdobato, Lalitpur Nepal",English,15538259,info@sahakariakhabar.com,https://www.sahakariakhabar.com/cooperative-directory/sanima-saving-&-credit-cooperative-ltd.,Bagmati
Sambridhi Kavre Agriculture Cooperative Ltd.,banepa -7  kavrepalanchok,English,11663375,info@sahakariakhabar.com,https://www.sahakariakhabar.com/cooperative-directory/sambridhi-kavre-agriculture-cooperative-ltd.,Bagmati
Jharna Saving & Credit Cooperative  Ltd.,dharan-9 sunsari,English,25577191,jharana086@gmail.com,https://www.sahakariakhabar.com/cooperative-directory/jharna-saving-&-credit-cooperative-ltd.,Koshi
Kriti Saving & Credit Cooperative Ltd.,dharan-12 sunsari,English,25538850,info@sahakariakhabar.com,https://www.sahakariakhabar.com/cooperative-directory/kriti-saving-&-credit-cooperative-ltd.-1,Koshi
Sagarmatha Saving & Credit Cooperative Ltd.,"hetauda ,makwanpur",English,57590900,info@sahakariakhabar.com,https://www.sahakariakhabar.com/cooperative-directory/sagarmatha-saving-&-credit-cooperative-ltd.,Bagmati
Maring Multipurpose Cooperative Ltd.,bhume-2 rukum,English,9809559033,maring.sahakari2075@gmail.com,https://www.sahakariakhabar.com/cooperative-directory/maring-multipurpose-cooperative-ltd.,Bagmati
Jafe Sana kishan Saving & Credit Cooperative Ltd.,jafe dolakha,English,77594554,info@sahakariakhabar.com,https://www.sahakariakhabar.com/cooperative-directory/jafe-sana-kishan-saving-&-credit-cooperative-ltd.,Bagmati
Pewa Saving & Credit Cooperative Ltd.,"ratnanagar-2 tadhi , chitwan",English,56562052,info@sahakariakhabar.com,https://www.sahakariakhabar.com/cooperative-directory/pewa-saving-&-credit-cooperative-ltd.,Bagmati
Namo Narayan Saving & Credit Cooperative Ltd.,"tokha ,kathmandu",English,14980790,info@sahakariakhabar.com,https://www.sahakariakhabar.com/cooperative-directory/namo-narayan-saving-&-credit-cooperative-ltd.,Bagmati
Birauta Saving & Credit Cooperative Ltd.,"birauta, pokhara -17,kaski",English,61456216,info@sahakariakhabar.com,https://www.sahakariakhabar.com/cooperative-directory/birauta-saving-&-credit-cooperative-ltd.,Gandaki
Sakriya Saving & Credit  Cooperative Ltd.,"rupakot , khotang",English,36420610,info@sahakariakhabar.com,https://www.sahakariakhabar.com/cooperative-directory/sakriya-saving-&-credit-cooperative-ltd.,Koshi
Uthkristi Saving & Credit Cooperative Ltd.,"Budanilakantha,galfutar  kathmandu",English,14374247,info@sahakariakhabar.com,https://www.sahakariakhabar.com/cooperative-directory/uthkristi-saving-&-credit-cooperative-ltd.,Bagmati
Maulakali Saving & Credit Cooperative Ltd.,"bharatpur-2 ,chitwan",English,56532384,maulakalisaccos@gmail.com,https://www.sahakariakhabar.com/cooperative-directory/maulakali-saving-&-credit-cooperative-ltd.,Bagmati
Kirshak  Jagarad Saving & Credit Cooperative Ltd.,"besisahar,lamjung",English,66520431,info@krishakjagaran.com.np,https://www.sahakariakhabar.com/cooperative-directory/kirshak-jagarad-saving-&-credit-cooperative-ltd.,Gandaki
Trisuli Saving & Credit Cooperative Ltd.,"trisuli ,nuwakot",English,10561215,trishulisahakari@gmail.com,https://www.sahakariakhabar.com/cooperative-directory/trisuli-saving-&-credit-cooperative-ltd.,Bagmati
Uam Saving & Credit Cooperative Ltd.,khopasi -12salyan,English,78941567,info@sahakariakhabar.com,https://www.sahakariakhabar.com/cooperative-directory/uam-saving-&-credit-cooperative-ltd.,Karnali
Trishakti Saving & Credit Cooperative Ltd.,"pokhara ,kaski",English,17484658,info@sahakariakhabar.com,https://www.sahakariakhabar.com/cooperative-directory/trishakti-saving-&-credit-cooperative-ltd.,Gandaki
Hamro Chitrawan Saving & Credit Cooperative Ltd.,"bharatpur-11,chitwan",English,56596125,hamrochitrawan77@gmail.com,https://www.sahakariakhabar.com/cooperative-directory/hamro-chitrawan-saving-&-credit-cooperative-ltd.,Bagmati
Ludensh Saving & Cooperative Ltd.,"besitar ,surkhet",English,14878764,info@sahakariakhabar.com,https://www.sahakariakhabar.com/cooperative-directory/ludensh-saving-&-cooperative-ltd.,Karnali
Kamdhenu Savbing & Credit Cooperative Ltd.,julmi,English,4785963,info@sahakariakhabar.com,https://www.sahakariakhabar.com/cooperative-directory/kamdhenu-savbing-&-credit-cooperative-ltd.,Sudurpashchim
Janata Saving & Credit Cooperative Ltd.,"deurali bhanjyanj , gorkha",English,47982569,info@sahakariakhabar.com,https://www.sahakariakhabar.com/cooperative-directory/janata-saving-&-credit-cooperative-ltd.-1,Gandaki
Janasatkar Upabhokta Saving & Credit Cooperative Ltd.,"fulabari , parsa",English,47895646,info@sahakariakhabar.com,https://www.sahakariakhabar.com/cooperative-directory/janasatkar-upabhokta-saving-&-credit-cooperative-ltd.,Madhesh
Annapurna Multipurpose Cooperative Ltd.,,English,42584584,info@sahakariakhabar.com,https://www.sahakariakhabar.com/cooperative-directory/annapurna-multipurpose-cooperative-ltd.,Unknown
Alaukik Saving & Credit  Cooperative Ltd.,"tarbesi , dhakuta",English,78784985,info@sahakariakhabar.com,https://www.sahakariakhabar.com/cooperative-directory/alaukik-saving-&-credit-cooperative-ltd.,Koshi
kolmateshwor Saving & Credit cooperative Ltd.,lagankhel -5 Lalitpur,English,41225454,info@sahakariakhabar.com,https://www.sahakariakhabar.com/cooperative-directory/kolmateshwor-saving-&-credit-cooperative-ltd.,Bagmati
Trishakti Saving & Credit Coopeerative Ltd.,newroad kathmandu,English,11455885,info@sahakariakhabar.com,https://www.sahakariakhabar.com/cooperative-directory/trishakti-saving-&-credit-coopeerative-ltd.,Bagmati
Indreni Saving & Credit Cooperative Ltd.,kamal-7 Jhapa,English,23501008,indrenicooperative@gmail.com,https://www.sahakariakhabar.com/cooperative-directory/indreni-saving-credit-cooperative-ltd-1,Koshi
Sumnima Saving & Credit Cooperative Ltd.,"Dharan,sunsari",English,25521655,sumnimasahakari@gmail.com,https://www.sahakariakhabar.com/cooperative-directory/sumnima-saving-&-credit-cooperative-ltd.,Koshi
Jay Kishan agriculture  Cooperative Ltd.,"jahada, moranj",English,9804391499,jaykishankirsi@gmail.com,https://www.sahakariakhabar.com/cooperative-directory/jay-kishan-agriculture-cooperative-ltd.,Bagmati
Central Dairy Cooperative Association  Ltd.,baneshwor kathmandu,English,14787242,cdcan.ktm@gmail.com,https://www.sahakariakhabar.com/cooperative-directory/central-dairy-cooperative-association-ltd.,Bagmati
Sahakali Saving & Credit Coopeerative Ltd.,"kageshwori -9,kadaghari ,kathmandu",English,4991138,sahakali.gothatar@gmail.com,https://www.sahakariakhabar.com/cooperative-directory/sahakali-saving-&-credit-coopeerative-ltd.,Bagmati
Parabartan Saving & Credit Cooperative ltd.,"nayanghar,nepal",English,78503024,paribartansaccos@gmail.com,https://www.sahakariakhabar.com/cooperative-directory/parabartan-saving-&-credit-cooperative-ltd.,Bagmati
Janakalyan Saving & Credit Cooperative  Ltd.,"benighat rorang -3,malekhu ,Dhading",English,10400049,info@sahakariakhabar.com,https://www.sahakariakhabar.com/cooperative-directory/janakalyan-saving-&-credit-cooperative-ltd.,Bagmati
Talpokhari Saving & Credit Cooperative Ltd.,"aarewati -3,talpokhari ,puthyan",English,74565214,info@sahakariakhabar.com,https://www.sahakariakhabar.com/cooperative-directory/talpokhari-saving-&-credit-cooperative-ltd.,Bagmati
Janabishwas Saving & Credit Cooperative Ltd.,birjung -6 parsa,English,51522631,janbiswa@gmail.com,https://www.sahakariakhabar.com/cooperative-directory/janabishwas-saving-&-credit-cooperative-ltd.,Madhesh
Morang Saving & Credit Cooperative Ltd.,"letang ,moranj",English,21560207,morangsaving2055@gmail.com,https://www.sahakariakhabar.com/cooperative-directory/morang-saving-&-credit-cooperative-ltd.,Koshi
Sujam Saving & Credit Coopeerative Ltd.,itahari -9 sunsari,English,25585498,sugamsaccos76@gmail.com,https://www.sahakariakhabar.com/cooperative-directory/sujam-saving-&-credit-coopeerative-ltd.,Koshi
District Cooperative Union Ltd.,"pokhara ,kaski",English,61463079,info@sahakariakhabar.com,https://www.sahakariakhabar.com/cooperative-directory/district-cooperative-union-ltd.-1,Gandaki
Hitausi Saving & Credit Cooperative Ltd.,"pokhara-28, kaski",English,61441105,htc.armala@gmail.com,https://www.sahakariakhabar.com/cooperative-directory/hitausi-saving-&-credit-cooperative-ltd.,Gandaki
Bagmati  Province Cooperative Union Ltd,Lalitpur nepal,English,15520326,bpcoul077@gmail.com,https://www.sahakariakhabar.com/cooperative-directory/bagmati-province-cooperative-union-ltd,Bagmati
Sribriddhi Saving & Credit Coopererative Ltd.,", pokhara -10 ramghat",English,61533477,shreebridhipok@gmail.com,https://www.sahakariakhabar.com/cooperative-directory/sribriddhi-saving-&-credit-coopererative-ltd.,Gandaki
Lagenshil Saving & Credit Cooperative Ltd.,kamal -5 Jhapa,English,23585438,laganshilcoop@gmail.com,https://www.sahakariakhabar.com/cooperative-directory/lagenshil-saving-credit-cooperative-ltd,Koshi
Nava   Dhawalagiri Saving  & Credit Cooperative Ltd.,"samakhusi ,kathmandu",English,15900856,ndssc64@gmail.com,https://www.sahakariakhabar.com/cooperative-directory/nava-dhawalagiri-saving-&-credit-cooperative-ltd.,Bagmati
Suryodaya Saving & Credit Cooperative Ltd.,"putalinagar ,syanja",English,63423185,suryodayasaving@gmail.com,https://www.sahakariakhabar.com/cooperative-directory/suryodaya-saving-&-credit-cooperative-ltd.,Gandaki
Nawadurga Saving & Credit Cooperative Ltd.,"bharatpur -5,chitwan",English,9.77057E+11,nawadurgasaccos828@gmail.com,https://www.sahakariakhabar.com/cooperative-directory/nawadurga-saving-&-credit-cooperative-ltd.,Bagmati
Thopa Saving & Credit Cooperative Ltd.,"sintitar, bhaktapur",English,11466569,info@sahakariakhabar.com,https://www.sahakariakhabar.com/cooperative-directory/thopa-saving-&-credit-cooperative-ltd.,Bagmati
Jangajamuna Saving & Credit Cooperative Ltd.,"minbhawan-31, kathmandu",English,14106554,gangajamuna@live.com,https://www.sahakariakhabar.com/cooperative-directory/jangajamuna-saving-&-credit-cooperative-ltd.,Bagmati
Chitwan District Saving & Credit Cooperative Union Ltd.,"bharatpur -10,chitwan",English,56594350,cdsccuchitwan@gmail.com,https://www.sahakariakhabar.com/cooperative-directory/chitwan-district-saving-&-credit-cooperative-union-ltd.,Bagmati
Sahayatri Saving & Credit Cooperative Ltd.,pokhara kaski,English,61530767,infosahayatrisaving@gmail.com,https://www.sahakariakhabar.com/cooperative-directory/sahayatri-saving-&-credit-cooperative-ltd.,Gandaki
Mahalaxmi Saccos,sundarbazar-2 lamjung,English,9856046642,mdcooperative@gmail.com,https://www.sahakariakhabar.com/cooperative-directory/mahalaxmi-saccos,Gandaki
Trifala Saving & Credit Cooperative Ltd.,"bakulhar,Chitwan",English,56561228,info@sahakariakhabar.com,https://www.sahakariakhabar.com/cooperative-directory/trifala-saving-&-credit-cooperative-ltd.,Bagmati
Smarika Saving & Credit Cooperative Ltd.,banasthali kathmandu,English,15903162,smarikasaving@gmail.com,https://www.sahakariakhabar.com/cooperative-directory/smarika-saving-&-credit-cooperative-ltd.,Bagmati
Sahas Multipurpose Cooperative Ltd.,pokhara-5 kaski,English,61419128,sahasmultipurpose@gmail.com,https://www.sahakariakhabar.com/cooperative-directory/sahas-multipurpose-cooperative-ltd.,Gandaki
Gandak Saving & Credit Cooperative Ltd.,"pokhara-17,berauta,kaski",English,61467961,gandaksahakari17@gmail.com,https://www.sahakariakhabar.com/cooperative-directory/gandak-saving-&-credit-cooperative-ltd.,Gandaki
Golden Saving & Credit Coopeerative Ltd.,pokhara-8 kaski,English,69538567,info@sahakariakhabar.com,https://www.sahakariakhabar.com/cooperative-directory/golden-saving-&-credit-coopeerative-ltd.,Gandaki
Capital Saving & Credit Cooperative Ltd.,lagankhel -12 lalitpur,English,5522498,capitalsaving1@gmail.com,https://www.sahakariakhabar.com/cooperative-directory/capital-saving-&-credit-cooperative-ltd.,Bagmati
Synergy Saving & Credit Cooperative Ltd.,lagankhel  lalitpur,English,15193331,info@sahakariakhabar.com,https://www.sahakariakhabar.com/cooperative-directory/synergy-saving-&-credit-cooperative-ltd.,Bagmati
Aadhunik Saving & Credit Cooperative Ltd.,"mechinajar-6 kakarvitta , jhapa",English,23563632,adhunikcoop@gmail.com,https://www.sahakariakhabar.com/cooperative-directory/aadhunik-saving-&-credit-cooperative-ltd.,Koshi
Sarbocha  Bikas Saving & Credit Cooperative Ltd.,chabil-7 kathmandu,English,14562377,supremecooperative@gmail.com,https://www.sahakariakhabar.com/cooperative-directory/sarbocha-bikas-saving-&-credit-cooperative-ltd.,Bagmati
Shree Gaura Saving & Credit Cooperative Ltd.,"prithivi basti , kanchanpur",English,99422009,gaurasaccos@gmail.com,https://www.sahakariakhabar.com/cooperative-directory/shree-gaura-saving-&-credit-cooperative-ltd.,Sudurpashchim
Shree kamidada Saving & Credit Cooperative Ltd.,"bethanchowk gaupalika-5, kamidada",English,16225577,info@sahakariakhabar.com,https://www.sahakariakhabar.com/cooperative-directory/shree-kamidada-saving-&-credit-cooperative-ltd.,Unknown
Kamana Saving & Credit Cooperative Ltd.,"chitwan,kathmandu",English,77584589,savingkamana01@gmail.com,https://www.sahakariakhabar.com/cooperative-directory/kamana-saving-&-credit-cooperative-ltd.,Bagmati
Simal Saving & Credit Cooperative Ltd.,surya binayak-10 bhaktapur,English,16540787,simalsacos@hotmail.com,https://www.sahakariakhabar.com/cooperative-directory/simal-saving-&-credit-cooperative-ltd.,Bagmati
Barun Saving & Credit Cooperative Ltd.,dharan-8 sunsari,English,25533942,barunsaccos@gmail.com,https://www.sahakariakhabar.com/cooperative-directory/barun-saving-&-credit-cooperative-ltd.,Koshi
Bright Saving & Credit Cooperative Ltd.,"bagbazar, kathmandu",English,14239584,brightsaccos@gmail.com,https://www.sahakariakhabar.com/cooperative-directory/bright-saving-&-credit-cooperative-ltd.,Bagmati
Sahara Saving & Credit Cooperative Ltd.,"siddhipur,lalitpur",English,15709163,saharasavingandcredit@gmail.com,https://www.sahakariakhabar.com/cooperative-directory/sahara-saving-&-credit-cooperative-ltd.-1,Bagmati
Gyan jyoti Mahila  uthan Saving & Credit Cooperative Ltd.,"sankhamul-31,kathmandu",English,15242312,gyanjyotisaccos@gmail.com,https://www.sahakariakhabar.com/cooperative-directory/gyan-jyoti-mahila-uthan-saving-credit-cooperative-ltd,Bagmati
Saccos Aawaj  cooperative ltd.,Panuti  kavrepalanchowk,English,14780201,nefscun@nefscun.org.np,https://www.sahakariakhabar.com/cooperative-directory/saccos-aawaj-cooperative-ltd.,Bagmati
Hans Multipurpose Cooperative Ltd,narayangad chitwan,English,56522725,hanscoopeerative@yahoo.com,https://www.sahakariakhabar.com/cooperative-directory/hans-multipurpose-cooperative-ltd,Bagmati
Buddhatwo Muultipurpose Cooperative Ltd.,,English,15333633,info@sahakariakhabar.com,https://www.sahakariakhabar.com/cooperative-directory/buddhatwo-muultipurpose-cooperative-ltd.,Unknown
Sangam Multipurpose Cooperative Ltd.,"uttariya, kailali",English,91550580,sangamagr245@gmail.com,https://www.sahakariakhabar.com/cooperative-directory/sangam-multipurpose-cooperative-ltd.,Sudurpashchim
Civic Saving & Credit Cooperative Ltd.,"lazimpath , kathmandu",English,14444800,civicmulti@gmail.com,https://www.sahakariakhabar.com/cooperative-directory/civic-saving-&-credit-cooperative-ltd.,Bagmati
Pathibhara Saving & Credit cooperative Ltd.,lagankhel  lalitpur,English,15555598,pathivara167@hotmail.com,https://www.sahakariakhabar.com/cooperative-directory/pathibhara-saving-&-credit-cooperative-ltd.,Bagmati
Touch Stone Saving & Credit Cooperative Ltd.,mahaboudha  kathmandu,English,14150662,touchstonecooperative@gmail.com,https://www.sahakariakhabar.com/cooperative-directory/touch-stone-saving-&-credit-cooperative-ltd.,Bagmati
Muna Saving & Credit Cooperative Ltd.,"jaidakot ,nawalparasi",English,78501376,munasaccos2076@gmail.com,https://www.sahakariakhabar.com/cooperative-directory/muna-saving-&-credit-cooperative-ltd.,Bagmati
Shuva ratna Saving & Credit cooperative Ltd.,"padajugi,kamal-5 jhapa",English,23580966,shubharatna.saccos@gmail.com,https://www.sahakariakhabar.com/cooperative-directory/shuva-ratna-saving-&-credit-cooperative-ltd.,Koshi
Himchuli Saving & Credit Cooperative Ltd.,nayabazar Gorkha,English,64420724,himchulisaccos@gmail.com,https://www.sahakariakhabar.com/cooperative-directory/himchuli-saving-&-credit-cooperative-ltd.,Gandaki
Subharambha Saving & Credit Cooperative Ltd.,janakpur dhanusha,English,41528531,subharambha123saccos@gmail.com,https://www.sahakariakhabar.com/cooperative-directory/subharambha-saving-&-credit-cooperative-ltd.,Madhesh
Unity Saving & Credit  Cooperative Ltd.+,nepalgunj-2 bake,English,81530863,unitysaccos66@gmail.com,https://www.sahakariakhabar.com/cooperative-directory/unity-saving-&-credit-cooperative-ltd.+,Lumbini
Namaste Saving & Credit Cooperative Ltd.,banepa-8 kavrepalanchowk,English,11664755,namastesacoss11@gmail.com,https://www.sahakariakhabar.com/cooperative-directory/namaste-saving-&-credit-cooperative-ltd.,Bagmati
District  Saving & Credit Cooperative Ltd,"hetauda ,makwanpur",English,57521172,mdsccu@yahoo.com,https://www.sahakariakhabar.com/cooperative-directory/district-saving-&-credit-cooperative-ltd,Bagmati
Yuva krishak Saving & Credit Cooperative Ltd,"satungal,-5 kathmandu",English,14316569,yuvakrishak2006@gmail.com,https://www.sahakariakhabar.com/cooperative-directory/yuva-krishak-saving-&-credit-cooperative-ltd,Bagmati
Royal Saving & Credit Cooperative Ltd.,janakpur dhanusha,English,41590202,info@sahakariakhabar.com,https://www.sahakariakhabar.com/cooperative-directory/royal-saving-&-credit-cooperative-ltd.,Madhesh
Chameli Saving & Credit Cooperative Ltd.,"ishworpur-6,bayalbas,sarlahi",English,46575065,chamelisaccos@gmail.com,https://www.sahakariakhabar.com/cooperative-directory/chameli-saving-&-credit-cooperative-ltd.,Madhesh
Ideal Saving & Credit Cooperative Ltd .,rajbiraj-4 saptari,English,31531399,idealcooperativejb@gmail.com,https://www.sahakariakhabar.com/cooperative-directory/ideal-saving-&-credit-cooperative-ltd-.,Madhesh
Tripura Mahila Saving & Credit Cooperative Ltd.,bhimeshwor -2 dolakha,English,9844406460,tripurawoman@gmail.com,https://www.sahakariakhabar.com/cooperative-directory/tripura-mahila-saving-&-credit-cooperative-ltd.,Bagmati
Milansar Saving & Credit Cooperative Ltd.,gothatar-2 kathmandu,English,14992997,info@sahakariakhabar.com,https://www.sahakariakhabar.com/cooperative-directory/milansar-saving-&-credit-cooperative-ltd.,Bagmati
Sunddarbazar Multipurpose  Cooperative Ltd.,"sundarbazar-7,lamjung",English,66402074,info@sahakariakhabar.com,https://www.sahakariakhabar.com/cooperative-directory/sunddarbazar-multipurpose-cooperative-ltd.,Gandaki
Kriti Saving & Credit Cooperative Ltd.,"banepa-6, kavrepalanchowk",English,661034,info@sahakariakhabar.com,https://www.sahakariakhabar.com/cooperative-directory/kriti-saving-&-credit-cooperative-ltd.,Bagmati
Sumeru  Saving & Credit cooperative Ltd.,pulchowk   Lalitpur,English,15455550,sumeru.pulchowk@gmail.com,https://www.sahakariakhabar.com/cooperative-directory/sumeru-saving-&-credit-cooperative-ltd.,Bagmati
Lalitpur District Federation of  Saving & Credit Cooperative  Ltd.,lagankhel -5 Lalitpur,English,15553007,federation.lalitpur@gmail.com,https://www.sahakariakhabar.com/cooperative-directory/lalitpur-district-federation-of-saving-&-credit-cooperative-ltd.,Bagmati
Darpan Saving & Credit Cooperative Ltd.,patan lalitpur,English,11428963,info@sahakariakhabar.com,https://www.sahakariakhabar.com/cooperative-directory/darpan-saving-&-credit-cooperative-ltd.,Bagmati
Aviyan Saviing & Credit  Cooperative Ltd.,"bharatpur ,chitwan",English,56525455,aviyan.sahakari@gmail.com,https://www.sahakariakhabar.com/cooperative-directory/aviyan-saviing-&-credit-cooperative-ltd.,Bagmati
Janajagriti Saving & Credit Cooperative Ltd.,lazimpat-2 kathmandu,English,14439552,janajagriticooperative@gmail.com,https://www.sahakariakhabar.com/cooperative-directory/janajagriti-saving-&-credit-cooperative-ltd.,Bagmati
Suryaganja Saving & Credit Cooperative  Ltd,bardaghat -4 nawalparasi,English,78580799,suryaganga2063@gmail.com,https://www.sahakariakhabar.com/cooperative-directory/suryaganja-saving-&-credit-cooperative-ltd,Bagmati
Upaya Saving & Credit Cooperative Ltd.,banepa -7  kavrepalanchok,English,11665388,upayasaccos@gmail.com,https://www.sahakariakhabar.com/cooperative-directory/upaya-saving-&-credit-cooperative-ltd.,Bagmati
Pacharati Saving & Credit Cooperative Ltd.,"budauli ,chitwan",English,56582856,pacharatibachat@gmail.com,https://www.sahakariakhabar.com/cooperative-directory/pacharati-saving-&-credit-cooperative-ltd.,Bagmati
Pasupati Saving & Credit Cooperative ltd,"suryabinayakchowk,katunje,bhaktapur",English,16620610,pasupatisaccos551@gmail.com,https://www.sahakariakhabar.com/cooperative-directory/pasupati-saving-&-credit-cooperative-ltd,Bagmati
Sirjanatmak Saving & Credit cooperative Ltd.,sundarbazar lamjung,English,66400035,sirjanatmaksaccos@gmail.com,https://www.sahakariakhabar.com/cooperative-directory/sirjanatmak-saving-&-credit-cooperative-ltd.,Gandaki
Tirupati Saving & Credit Cooperative Ltd.,patharisanichare -1[shikhar chowk ] morang,English,21555633,info@sahakariakhabar.com,https://www.sahakariakhabar.com/cooperative-directory/tirupati-saving-&-credit-cooperative-ltd.,Koshi
Srijanatmak Saving &Credit Cooperative Ltd.,"sundarbazar-9 bhoteodar ,srijanachowk, lamjung",English,6640035,srijanatmaksaccos@gmail.com,https://www.sahakariakhabar.com/cooperative-directory/srijanatmak-saving-&credit-cooperative-ltd.,Gandaki
Paila Multipurpose Cooperative Ltd.,"kundahar, pokhara",English,61531038,pailamcl13@gmail.com,https://www.sahakariakhabar.com/cooperative-directory/paila-multipurpose-cooperative-ltd.,Gandaki
Sana Kisan Saving & Credit Cooperative Ltd.,maduban-4 bardiya,English,84441010,sfacl064dhodhary@gmail.com,https://www.sahakariakhabar.com/cooperative-directory/sana-kisan-saving-&-credit-cooperative-ltd.,Lumbini
Shree Durga Saving & Credit Cooperative Ltd.,"kumaripati,lalitpur",English,15531430,shree.durga037@gmail.com,https://www.sahakariakhabar.com/cooperative-directory/shree-durga-saving-&-credit-cooperative-ltd.,Bagmati
Upakar Saving & Credit Cooperative Ltd.,madhepur thimi -6 bahakbajar bhaktapur,English,16633643,upakarsaccos@gmail.com,https://www.sahakariakhabar.com/cooperative-directory/upakar-saving-&-credit-cooperative-ltd.,Bagmati
Upasana Mahila Saving & Credit Cooperative Ltd.,Sitapaila -4 Kathmandu,English,14034640,upasanacoops@gmail.com,https://www.sahakariakhabar.com/cooperative-directory/upasana-mahila-saving-&-credit-cooperative-ltd.,Bagmati
Tewa Multipurpose Cooperative Ltd.,"tewachok,hattiban,lalitpur",English,5250742,tewacooperative@gmail.com,https://www.sahakariakhabar.com/cooperative-directory/tewa-multipurpose-cooperative-ltd.,Bagmati
Anjali Saving & Credit Cooperative Ltd.,"swambhu, kathmandu",English,15247300,info@anjalisc.com.np,https://www.sahakariakhabar.com/cooperative-directory/anjali-saving-&-credit-cooperative-ltd.,Bagmati
Apariharya Multipurpose Cooperative Ltd.,kalimati -13 kathmandu,English,14274657,info@sahakariakhabar.com,https://www.sahakariakhabar.com/cooperative-directory/apariharya-multipurpose-cooperative-ltd.,Bagmati
Sunshine Laxmi Multipurpose Cooperartive Ltd.,"nagaarjun-4 sitapaila,kathmandu",English,14033154,sunshine.laxmi07@gmail.com,https://www.sahakariakhabar.com/cooperative-directory/sunshine-laxmi-multipurpose-cooperartive-ltd.,Bagmati
Sinarji Multipurpose Cooperative Ltd.,jitpur kapilbastu,English,76550163,synergycoop@yahoo.com,https://www.sahakariakhabar.com/cooperative-directory/sinarji-multipurpose-cooperative-ltd.,Bagmati
Nawajagaran Saving & Credit Cooperative Ltd.,manthali municipality -1 ramechhap,English,48540380,nawajagaransaccos@gmail.com,https://www.sahakariakhabar.com/cooperative-directory/nawajagaran-saving-&-credit-cooperative-ltd.,Bagmati
laliguransh  Saving & Credit Cooperative Ltd.,belbari-3 morang,English,21434239,laliguranshsaccos@yahoo.com,https://www.sahakariakhabar.com/cooperative-directory/laliguransh-saving-&-credit-cooperative-ltd.,Koshi
Gramin Saving & Credit Cooperative Ltd.,Sarada municipality -2 salyan,English,88520244,salyangramin@gmail.com,https://www.sahakariakhabar.com/cooperative-directory/gramin-saving-&-credit-cooperative-ltd.,Karnali
Ekikrit Friendship Saving & Credit Cooperative Ltd.,jiri municipality-5 dolakha,English,49400044,info@sahakariakhabar.com,https://www.sahakariakhabar.com/cooperative-directory/ekikrit-friendship-saving-credit-cooperative-ltd,Bagmati
Comfort Saving & Credit Cooperative Ltd.,nayabazar-16 kathmandu,English,14951511,info@sahakariakhabar.com,https://www.sahakariakhabar.com/cooperative-directory/comfort-saving-&-credit-cooperative-ltd.,Bagmati
Deukhuri Saving & Credit Cooperative Ltd.,"sishaniya ,dang",English,82402015,deukhurisaccos@gmail.com,https://www.sahakariakhabar.com/cooperative-directory/deukhuri-saving-&-credit-cooperative-ltd.,Lumbini
Arthaganesh Saving & Credit Cooperative Ltd.,fullbari chitwan,English,56591040,arethaganeshcooperatyive@gmail.com,https://www.sahakariakhabar.com/cooperative-directory/arthaganesh-saving-&-credit-cooperative-ltd.,Bagmati
Mansarobar Saving & Credit Cooperative Ltd.,kathmandu,English,14598632,info@sahakariakhabar.com,https://www.sahakariakhabar.com/cooperative-directory/mansarobar-saving-&-credit-cooperative-ltd.,Bagmati
gokarna Saving & Credit Cooperative Ltd.,boudha kathmandu,English,14494829,info@gokarnasaving.com,https://www.sahakariakhabar.com/cooperative-directory/gokarna-saving-&-credit-cooperative-ltd.,Bagmati
Janata Saving & Credit Cooperative Ltd.,"surya binayak-4 chitrapur,bhaktapur",English,6633895,janata.sccl@gmail.com,https://www.sahakariakhabar.com/cooperative-directory/janata-saving-&-credit-cooperative-ltd.,Bagmati
District Cooperative Union Ltd.,mahalaxmisthan lalitpur,English,5522381,dculalitpur@hotmail.com,https://www.sahakariakhabar.com/cooperative-directory/district-cooperative-union-ltd.,Bagmati
Sankha Binayak  Saving & Credit Cooperative Ltd.,"sankhamul, new baneshwor ,kathmandu",English,14795150,info@sahakariakhabar.com,https://www.sahakariakhabar.com/cooperative-directory/sankha-binayak-saving-&-credit-cooperative-ltd.,Bagmati
Petku Krisi Cooperative Ltd.,petku sindhupalchwok,English,11582696,info@sahakariakhabar.com,https://www.sahakariakhabar.com/cooperative-directory/petku-krisi-cooperative-ltd.,Bagmati
Manashiv Multipurpose Cooperative Ltd.,"surya binayak -8, jagati,bhaktapur",English,16620441,mmc.cooperative226@gmail.com,https://www.sahakariakhabar.com/cooperative-directory/manashiv-multipurpose-cooperative-ltd.,Bagmati
Mega Dream Multipurpose Ltd.,"balagu -16 maxapokhari ,kathmandu",English,14381615,megadream.saccos@gmail.com,https://www.sahakariakhabar.com/cooperative-directory/mega-dream-multipurpose-ltd.-1,Bagmati
Hamro Saving & Credit Cooperative Ltd.,lagankhel  lalitpur,English,15545229,info@hamrosaccos.coop.np,https://www.sahakariakhabar.com/cooperative-directory/hamro-saving-&-credit-cooperative-ltd.-1,Bagmati
Sworgadwari Saving & Credit Cooperative Ltd.,banepa kavrepalanchowk,English,11528963,info@sahakariakhabar.com,https://www.sahakariakhabar.com/cooperative-directory/sworgadwari-saving-&-credit-cooperative-ltd.,Bagmati
Chandeshwori Saving & Credit Cooperative Ltd.,banepa-8 kavrepalanchowk,English,11662914,chandibachat@gmail.com,https://www.sahakariakhabar.com/cooperative-directory/chandeshwori-saving-&-credit-cooperative-ltd.,Bagmati
Mini Ganesh Saving & Credit Cooperative Ltd.,"Newroad, Kathmandu Nepal",English,15713082,mgsc66@gmail.com,https://www.sahakariakhabar.com/cooperative-directory/mini-ganesh-saving-&-credit-cooperative-ltd.,Bagmati
Abhiruchi Saving & Credit Cooperative Ltd.,bhairahawa,English,71587535,abhiruchi.cooperative@gmail.com,https://www.sahakariakhabar.com/cooperative-directory/abhiruchi-saving-&-credit-cooperative-ltd.,Lumbini
Pragyan Saving & Credit Cooperative Ltd.,balambu-6 kathmandu,English,14316725,pragyansaccos@gmail.com,https://www.sahakariakhabar.com/cooperative-directory/pragyan-saving-&-credit-cooperative-ltd.,Bagmati
Bijeta Multipurpose Cooperative Ltd.,nayabazar-16 kathmandu,English,14358962,bijetamultipurposecoop@gmail.com,https://www.sahakariakhabar.com/cooperative-directory/bijeta-multipurpose-cooperative-ltd,Bagmati
Shubhaprava Saving & Credit Cooperative Ltd.,"Chabil ,chuchepati ,kathmandu",English,14461327,shubhaprava.cop@gmail.com,https://www.sahakariakhabar.com/cooperative-directory/shubhaprava-saving-&-credit-cooperative-ltd.,Bagmati
Tribeni Saving & Credit Cooperative Ltd.,sandhikharka  argahakhachi,English,661442266,info@sahakariakhabar.com,https://www.sahakariakhabar.com/cooperative-directory/tribeni-saving-&-credit-cooperative-ltd.,Bagmati
Sathi Saving & Credit Cooperative Ltd.,sandhikharka ardhakhachi,English,77420478,info@sahakariakhabar.com,https://www.sahakariakhabar.com/cooperative-directory/sathi-saving-&-credit-cooperative-ltd.,Lumbini
Jayalaxmi Saving & Credit Cooperative Ltd.,pokhara kaski,English,61525382,info@sahakariakhabar.com,https://www.sahakariakhabar.com/cooperative-directory/jayalaxmi-saving-&-credit-cooperative-ltd.,Gandaki
Niyoj Multipurpose Coopeerative Ltd.,dhalate bhaktapur,English,15092133,multipurposeniroj@gmail.com,https://www.sahakariakhabar.com/cooperative-directory/niyoj-multipurpose-coopeerative-ltd.,Bagmati
Tejaswini Saving & Credit Cooperative Ltd.,"mulpani ,kathmandu",English,14153776,info@sahakariakhabar.com,https://www.sahakariakhabar.com/cooperative-directory/tejaswini-saving-&-credit-cooperative-ltd.,Bagmati
Pragati Saving & Credit Cooperative Ltd.,tharmare salyan,English,88412026,prajati0532@gmail.com,https://www.sahakariakhabar.com/cooperative-directory/pragati-saving-&-credit-cooperative-ltd.,Karnali
Sukha Sambriddhi  Saving & Credit  Cooperative Ltd.,boudha kathmandu,English,14913860,sukhasambriddhi@gmail.com,https://www.sahakariakhabar.com/cooperative-directory/sukha-sambriddhi-saving-&-credit-cooperative-ltd.,Bagmati
Shankadhar saving & credit cooperative ltd,Thimi  bhaktapur,English,5093507,shankadharsaccos@gmail.com,https://www.sahakariakhabar.com/cooperative-directory/shankadhar-saving-&-credit-cooperative-ltd,Bagmati
Kamalnayan Multipurpose Coopeerative Ltd.,Lagenkhel-5  Lalitpur,English,15553468,kamalnayan2074@gmail.com,https://www.sahakariakhabar.com/cooperative-directory/kamalnayan-multipurpose-coopeerative-ltd.,Bagmati
Manakamana Saving & Credit Cooperative Ltd.,patharisanishchare morang,English,21555224,manakamanasaccos@gmail.com,https://www.sahakariakhabar.com/cooperative-directory/manakamana-saving-&-credit-cooperative-ltd.,Koshi
Laxmi Mahila  Saving & Credit Cooperative Ltd,panauti -5 chaukot kavrepalanchowk,English,11662628,laxmisaccos@hotmail.com,https://www.sahakariakhabar.com/cooperative-directory/laxmi-mahila-saving-&-credit-cooperative-ltd,Bagmati
Nilgiri Saving & Credit cooperative Ltd.,Khairahani -8 chitwan,English,56583092,info@sahakariakhabar.com,https://www.sahakariakhabar.com/cooperative-directory/nilgiri-saving-&-credit-cooperative-ltd.,Bagmati
Narayadi Saving & Credit cooperative Ltd.,pasupatinagar-hetauda-makwanpur,English,46412074,info@sahakariakhabar.com,https://www.sahakariakhabar.com/cooperative-directory/narayadi-saving-&-credit-cooperative-ltd.,Bagmati
scope saving & credity cooperative ltd,saugal lalitpur,English,15546253,scopesaccos@gmail.com,https://www.sahakariakhabar.com/cooperative-directory/scope-saving-&-credity-cooperative-ltd,Bagmati
Basti Bikas Saving & Credit Cooperative Ltd.,basanta chowk jhapa,English,23582659,info@sahakariakhabar.com,https://www.sahakariakhabar.com/cooperative-directory/basti-bikas-saving-&-credit-cooperative-ltd.,Koshi
Dhanush Saving & Credit Cooperative Ltd.,new road darbarpark,English,61534509,dhanushsaving@gmail.com,https://www.sahakariakhabar.com/cooperative-directory/dhanush-saving-&-credit-cooperative-ltd.,Bagmati
Shakti saving & Credit Cooperative Ltd.,banepa -10 kavrepaanchok,English,11662833,info@sahakariakhabar.com,https://www.sahakariakhabar.com/cooperative-directory/shakti-saving-&-credit-cooperative-ltd.,Bagmati
Punyabhumi Saving & Credit Cooperative Ltd.,old baneshwor kathmandu,English,14488660,punyabhumisaccos@gmail.com,https://www.sahakariakhabar.com/cooperative-directory/punyabhumi-saving-&-credit-cooperative-ltd.,Bagmati
Real Gorkha Saving & Credit Cooperative  Ltd.,teenkune kathmandu,English,15192070,info@sahakariakhabar.com,https://www.sahakariakhabar.com/cooperative-directory/real-gorkha-saving-&-credit-cooperative-ltd.,Bagmati
Sarbeshwori Agriculture Cooperative Ltd.,damak-6 jhapa,English,23581595,sarbeshwori1@gmail.com,https://www.sahakariakhabar.com/cooperative-directory/sarbeshwori-agriculture-cooperative-ltd.,Koshi
Bagmati saving & credit cooperative ltd,banepa-7 kavrepalanchowk,English,11665368,bagmatiproscun@gmail.com,https://www.sahakariakhabar.com/cooperative-directory/bagmati-saving-&-credit-cooperative-ltd,Bagmati
Laxmi Saving & Credit Cooperative Ltd.,Barahisthan -4 bhaktapur,English,16613762,info@sahakariakhabar.com,https://www.sahakariakhabar.com/cooperative-directory/laxmi-saving-&-credit-cooperative-ltd.,Madhesh
Unnat Saving & Credit cooperative Ltd.,kalaiya -5 bara,English,53551903,info@unnatsahakari.com,https://www.sahakariakhabar.com/cooperative-directory/unnat-saving-&-credit-cooperative-ltd.,Madhesh
Barah  Saving & Credit Cooperative Ltd.,dharan-12 sunsari,English,25531222,barahbachat@gmail.com,https://www.sahakariakhabar.com/cooperative-directory/barah-saving-&-credit-cooperative-ltd.,Koshi
Kalika Saving & credit  Cooperative Ltd.,inaruwa -4 sunsari,English,9800957601,kalikainw@gmail.com,https://www.sahakariakhabar.com/cooperative-directory/kalika-saving-&-credit-cooperative-ltd.,Koshi
Akshetya Saving & Credit  Cooperative Ltd.,boudha -6 tusalchowk,English,14479595,akshatasaccos@gmail.com,https://www.sahakariakhabar.com/cooperative-directory/akshetya-saving-&-credit-cooperative-ltd.,Bagmati
Ideal Yamuna Multipurpose Cooperative Ltd.,sukedhara kathmandu,English,1437862,iycorparate076@gmail.com,https://www.sahakariakhabar.com/cooperative-directory/ideal-yamuna-multipurpose-cooperative-ltd.,Bagmati
NIST Saving & Credit Cooperative Ltd.,lainchour-26 kathmandu,English,14433672,nistsahakari@gmail.com,https://www.sahakariakhabar.com/cooperative-directory/nist-saving-&-credit-cooperative-ltd.,Bagmati
Shwet Bhairav & Credit Cooperative Ltd.,Chikamugal -23 kathmandu,English,14240054,shwetbhairavs@gmail.com,https://www.sahakariakhabar.com/cooperative-directory/shwet-bhairav-&-credit-cooperative-ltd.,Bagmati
Prerak Saving & Credit Cooperative Ltd.,bhaktapur,English,16620918,info@sahakariakhabar.com,https://www.sahakariakhabar.com/cooperative-directory/prerak-saving-&-credit-cooperative-ltd.-1,Bagmati
Lalupate Multipurpose Cooperative Ltd.,chabil sworshiti nagar kathmandu,English,14810085,info@sahakariakhabar.com,https://www.sahakariakhabar.com/cooperative-directory/lalupate-multipurpose-cooperative-ltd.,Bagmati
Lakshya Saving & Credit Cooperative Ltd.,dudhpati-1 bhaktapur,English,6612275,info@sahakariakhabar.com,https://www.sahakariakhabar.com/cooperative-directory/lakshya-saving-&-credit-cooperative-ltd.,Bagmati
Jilla Sahakari Saving & Credit Cooperative Ltd.,"charikot ,dolkha",English,49421200,dcudolakha@gmail.com,https://www.sahakariakhabar.com/cooperative-directory/jilla-sahakari-saving-&-credit-cooperative-ltd.,Bagmati
Jagruk Saving & Credit Cooperative Ltd.,"Biratnagar, Moranj",English,21436236,saccos.jagarukbrt514@gmail.com,https://www.sahakariakhabar.com/cooperative-directory/jagruk-saving-&-credit-cooperative-ltd.,Koshi
Hamro Saving & Credit Cooperative Ltd.,"bandipur, dumre, tanahu",English,65580200,info@sahakariakhabar.com,https://www.sahakariakhabar.com/cooperative-directory/hamro-saving-&-credit-cooperative-ltd.,Gandaki
Budol Samudayek Saving & Credit Cooperative Ltd.,banepa -6 budol banepa,English,11660564,info@budol.coop.np,https://www.sahakariakhabar.com/cooperative-directory/budol-samudayek-saving-&-credit-cooperative-ltd.,Bagmati
Ananta Multipurpose  Cooperative Ltd.,"surya binayak , bhaktapur",English,14875952,anantasaving@gmail.com,https://www.sahakariakhabar.com/cooperative-directory/ananta-multipurpose-cooperative-ltd.,Bagmati
Anamol Multipurpose Cooperative Ltd.,"birendrachowk manohara,kathmandu",English,14991149,anamolsaccos@gmail.com,https://www.sahakariakhabar.com/cooperative-directory/anamol-multipurpose-cooperative-ltd.,Bagmati
Nateshwor Saving & Credit Cooperative Ltd.,"satunjal, kathmandu",English,14315660,info@sahakariakhabar.com,https://www.sahakariakhabar.com/cooperative-directory/nateshwor-saving-&-credit-cooperative-ltd.,Bagmati
Bharosha Multipurpose Cooperative Ltd.,"old baneshwor ,kathmandu",English,14465386,info@sahakariakhabar.com,https://www.sahakariakhabar.com/cooperative-directory/bharosha-multipurpose-cooperative-ltd.,Bagmati
Tirtha Savinng & credit cooperative Ltd.,"chabil,kathmandu",English,14490638,info@sahakariakhabar.com,https://www.sahakariakhabar.com/cooperative-directory/tirtha-savinng-&-credit-cooperative-ltd.,Bagmati
Nageshwori Saving & Credit Cooperative Ltd.,"house no.463/8 first floor ,paknajol-16 kathmandu",English,14252453,snowair4u@enet.com.np,https://www.sahakariakhabar.com/cooperative-directory/nageshwori-saving-&-credit-cooperative-ltd.,Bagmati
Nagdaha Saving & Credit Cooperative Ltd.,"Gokarneshwor -7 daxin dokha , kathmandu",English,14911176,info@sahakariakhabar.com,https://www.sahakariakhabar.com/cooperative-directory/nagdaha-saving-&-credit-cooperative-ltd.,Bagmati
Sakchyam Sanjal Sasving & Credit Cooperative Ltd.,"Gokarneshwor -8 Jorpati, kathmandu",English,14911418,sahakariakhabar@gmail.com,https://www.sahakariakhabar.com/cooperative-directory/sakchyam-sanjal-sasving-&-credit-cooperative-ltd.,Bagmati
Natural Saving &  Credit Cooperative Ltd.,"Gokarneshwor -6 Jorpati, kathmandu",English,14917109,info@sahakariakhabar.com,https://www.sahakariakhabar.com/cooperative-directory/natural-saving-&-credit-cooperative-ltd.,Bagmati
Navajat  Saving & Credit Cooperative Ltd.,"kathmandu-32 ,Sworshiti chowk ,",English,16209209,navajatcoop@gmail.com,https://www.sahakariakhabar.com/cooperative-directory/navajat-saving-&-credit-cooperative-ltd.,Bagmati
Anmol Saving & Credit Cooperative Ltd.,"sipadol-1 suryabinayak,bhaktapur",English,16619573,info@sahakariakhabar.com,https://www.sahakariakhabar.com/cooperative-directory/anmol-saving-&-credit-cooperative-ltd.,Bagmati
Bhirkuti Multipurpose Cooperative Ltd.,"new baneshwor, kathmandu",English,14104261,sahakariakhabar@gmail.com,https://www.sahakariakhabar.com/cooperative-directory/bhirkuti-multipurpose-cooperative-ltd.,Bagmati
Nawakantipur Multipurpose Cooperative Ltd.,"battisputali,kathmandu",English,14498801,info@sahakariakhabar.com,https://www.sahakariakhabar.com/cooperative-directory/nawakantipur-multipurpose-cooperative-ltd.,Bagmati
Abhilekh Saving & Credit Cooperative Ltd.,"gurjudhara ,balambu,kathmandu",English,14316789,abhilekhsaccos69@gmail.com,https://www.sahakariakhabar.com/cooperative-directory/abhilekh-saving-&-credit-cooperative-ltd.,Bagmati
Abashek Saving & Credit Cooperative Ltd.,chabil-7 kathmandu,English,14496693,asccl2066@gmail.com,https://www.sahakariakhabar.com/cooperative-directory/abashek-saving-&-credit-cooperative-ltd.,Bagmati
Shree Nabin  Multipurpose Cooperative Ltd.,thankot-6 kathmandu,English,14311482,sahakariakhabar@gmail.com,https://www.sahakariakhabar.com/cooperative-directory/shree-nabin-multipurpose-cooperative-ltd.,Bagmati
Navarash Saving & Credit Cooperative Ltd.,kathmandu -7 chabil,English,14479027,sahakariakhabar@gmail.com,https://www.sahakariakhabar.com/cooperative-directory/navarash-saving-&-credit-cooperative-ltd.,Bagmati
Uttar Bahini  Multipurpose Cooperative Ltd.,Gokarneshwor -7 kathmandu,English,14800993,info@sahakariakhabar.com,https://www.sahakariakhabar.com/cooperative-directory/uttar-bahini-multipurpose-cooperative-ltd.,Bagmati
Mitra Malashree Saving & Credit Cooperative Ltd.,"kattubahal,chabil-7 kathmandu",English,14482370,info@sahakariakhabar.com,https://www.sahakariakhabar.com/cooperative-directory/mitra-malashree-saving-&-credit-cooperative-ltd.,Bagmati
Agamya Multipurpose Cooperative Ltd.,"maitidevi,kathmandu",English,14420027,agamya2074@gmail.com,https://www.sahakariakhabar.com/cooperative-directory/agamya-multipurpose-cooperative-ltd.,Bagmati
Himali Multipurpose Cooperative Ltd .,chabil kathmandu,English,12072584,info@sahakariakhabar.com,https://www.sahakariakhabar.com/cooperative-directory/himali-multipurpose-cooperative-ltd-.,Bagmati
Shree Nityanath Saving & Credit Cooperative Ltd.,"phaping,kathmandu",English,14710290,sahakariakhabar@gmail.com,https://www.sahakariakhabar.com/cooperative-directory/shree-nityanath-saving-&-credit-cooperative-ltd.,Bagmati
Sakchhyam Saving & Credit Cooperative Ltd.,Budanilakantha -12 kapan kathmandu,English,14820800,info@sahakariakhabar.com,https://www.sahakariakhabar.com/cooperative-directory/sakchhyam-saving-&-credit-cooperative-ltd.,Bagmati
Anandapur Saving & Credit Cooperative Ltd.,daxi-7 thali kathmandu,English,14450548,info@sahakariakhabar.com,https://www.sahakariakhabar.com/cooperative-directory/anandapur-saving-&-credit-cooperative-ltd.,Bagmati
Jayahos Saving & Credit Cooperative Ltd.,pako newroad  kathmandu,English,16910216,info@sahakariakhabar.com,https://www.sahakariakhabar.com/cooperative-directory/jayahos-saving-&-credit-cooperative-ltd.,Bagmati
Zest Saving & Credit Cooperative Ltd.,"gongabu chowk , kathmandu",English,14388561,sahakariakhabar@gmail.com,https://www.sahakariakhabar.com/cooperative-directory/zest-saving-&-credit-cooperative-ltd.-1,Bagmati
Zest Ideology  Saving & Credit Cooperative Ltd.,"mahalaxmi complex , khichapokhari ,newroad kathmandu",English,14264664,info@sahakariakhabar.com,https://www.sahakariakhabar.com/cooperative-directory/zest-ideology-saving-&-credit-cooperative-ltd.,Bagmati
Uttperena Saving & Credit Cooperative Ltd .,"Tokha , ghormahakal kathmandu",English,15127150,uttperna@gmail.com,https://www.sahakariakhabar.com/cooperative-directory/uttperena-saving-&-credit-cooperative-ltd-.,Bagmati
Unique Saving & Credit Cooperative Ltd.,lalitpur-1 kapandol,English,5525941,info@uniquesaving.com.np,https://www.sahakariakhabar.com/cooperative-directory/unique-saving-&-credit-cooperative-ltd.,Bagmati
Tokha Friendship Saving & Credit Cooperative Ltd.,tokha -4 kathmandu,English,14856974,info@sahakariakhabar.com,https://www.sahakariakhabar.com/cooperative-directory/tokha-friendship-saving-&-credit-cooperative-ltd.,Bagmati
Thankot Mahila Jagaran  Saving & Credit Cooperative Ltd.,Thankot -8 kathmandu,English,14315654,info@sahakariakhabar.com,https://www.sahakariakhabar.com/cooperative-directory/thankot-mahila-jagaran-saving-&-credit-cooperative-ltd.,Bagmati
Thankot Multipurpose Cooperative Ltd.,"thankot, kathmandu",English,1325632,info@sahakariakhabar.com,https://www.sahakariakhabar.com/cooperative-directory/thankot-multipurpose-cooperative-ltd.,Bagmati
Tapaiko Hamro  Multipurpose  Cooperative Ltd.,"chandragiri-14 nayanaikap, kathmandu",English,14316000,info@sahakariakhabar.com,https://www.sahakariakhabar.com/cooperative-directory/tapaiko-hamro-multipurpose-cooperative-ltd.,Bagmati
Symbolic Saviung & Credit Cooperative Ltd .,kathmandu-35 jadibuti,English,15149007,symbolicsaving3469@gmail.com,https://www.sahakariakhabar.com/cooperative-directory/symbolic-saviung-&-credit-cooperative-ltd-.,Bagmati
Sundarimai  Saving & Credit Cooperative Ltd.,"nayapati sundarijal,kathmandu",English,14800716,info@sahakariakhabar.com,https://www.sahakariakhabar.com/cooperative-directory/sundarimai-saving-&-credit-cooperative-ltd.,Bagmati
Sijal Saving &  Credit Coopereative Ltd.,kalimati kathmandu,English,14852962,info@sahakariakhabar.com,https://www.sahakariakhabar.com/cooperative-directory/sijal-saving-&-credit-coopereative-ltd.,Bagmati
Shree Om Saving & Credit Cooperative Ltd.,chabil-7 kathmandu,English,12054194,sahakariakhabar@gmail.com,https://www.sahakariakhabar.com/cooperative-directory/shree-om-saving-&-credit-cooperative-ltd.,Bagmati
Shivashree Multipurpose Cooperative Ltd.,Anamnagar kathmandu,English,14771177,sahakariakhabar@gmail.com,https://www.sahakariakhabar.com/cooperative-directory/shivashree-multipurpose-cooperative-ltd,Bagmati
Shiva Shikhar Multipurpose Cooperative Ltd.,kausaltar bhaktapur,English,16635262,shivashikharho@gmail.com,https://www.sahakariakhabar.com/cooperative-directory/shiva-shikhar-multipurpose-cooperative-ltd.,Bagmati
Santi Ganesh Saving & Credit Cooperative Ltd.,"sagarmatha chowk , kapan , kathmandu",English,18410018,shantiganesh73@gmail.com,https://www.sahakariakhabar.com/cooperative-directory/santi-ganesh-saving-&-credit-cooperative-ltd.,Bagmati
Sana Gharelu  Saving & Credit Cooperative Ltd.,"shesnarayad -3 pharping ,kathmandu",English,14710612,info@sahakariakhabar.com,https://www.sahakariakhabar.com/cooperative-directory/sana-gharelu-saving-&-credit-cooperative-ltd.,Bagmati
Samuhik Saving & Credit Cooperative Ltd.,"bhaktapur -3, bolaxe",English,6613512,info@sahakariakhabar.com,https://www.sahakariakhabar.com/cooperative-directory/samuhik-saving-&-credit-cooperative-ltd.-1,Bagmati
Samayojan Biratnagar Saving &  Credit Cooperative Ltd.,Biratnagar - 13 roadshape chowk,English,21472494,sahakariakhabar@gmail.com,https://www.sahakariakhabar.com/cooperative-directory/samayojan-biratnagar-saving-&-credit-cooperative-ltd.,Unknown
Sabal Mahila Multipurpose Cooperative Ltd.,panitanki kathmandu,English,19210299,info@sahakariakhabar.com,https://www.sahakariakhabar.com/cooperative-directory/sabal-mahila-multipurpose-cooperative-ltd.,Bagmati
Ramkot Saving & Credit Cooperative Ltd.,nilkantha -8 sajutar dhading,English,10521133,info@sahakariakhabar.com,https://www.sahakariakhabar.com/cooperative-directory/ramkot-saving-&-credit-cooperative-ltd.-1,Bagmati
Rajshree Saving & Credit Cooperative Ltd .,"malangawa , sarlahi",English,46520433,sahakariakhabar@gmail.com,https://www.sahakariakhabar.com/cooperative-directory/rajshree-saving-&-credit-cooperative-ltd-.,Madhesh
Premium Saving & Credit Cooperative Ltd.,"Narayan  aarked , indrachowk , kathmandu",English,14228845,premiumsav@wlink.com.np,https://www.sahakariakhabar.com/cooperative-directory/premium-saving-&-credit-cooperative-ltd.,Bagmati
Prathiva Multipurpose Cooperative Ltd.,"thasikhel ,lalitpur",English,15193620,hamroprativa@gmail.com,https://www.sahakariakhabar.com/cooperative-directory/prathiva-multipurpose-cooperative-ltd.,Bagmati
Padma Chakra  Saving & Credit Cooperative Ltd.,"Tokha , chandeshwori , kathmandu",English,15110049,sahakariakhabar@gmail.com,https://www.sahakariakhabar.com/cooperative-directory/padma-chakra-saving-&-credit-cooperative-ltd.,Bagmati
Om Tara Multipurpose Cooperative Ltd.,"Boudha ,Mahakal ,kathmandu",English,15178070,info@sahakariakhabar.com,https://www.sahakariakhabar.com/cooperative-directory/om-tara-multipurpose-cooperative-ltd.,Bagmati
New  Shikharapur Saving & Credit Cooperative Ltd.,"pharping, kathmandu",English,14710735,info@sahakariakhabar.com,https://www.sahakariakhabar.com/cooperative-directory/new-shikharapur-saving-&-credit-cooperative-ltd.,Bagmati
Naya gramin bikasa multipurpose Cooperative  Ltd.,"Sesnarayan -2 pharping, kathmandu",English,14710915,info@sahakariakhabar.com,https://www.sahakariakhabar.com/cooperative-directory/naya-gramin-bikasa-multipurpose-cooperative-ltd.,Bagmati
Navodaya  Multipurpose Cooperative Ltd.,"budanilkantha -12 ,kapan , kathmandu",English,14821106,info@sahakariakhabar.com,https://www.sahakariakhabar.com/cooperative-directory/navodaya-multipurpose-cooperative-ltd.,Bagmati
Munal  Saving & Credit Cooperative  Ltd.,"samakhushi ,kathmandu .",English,14951005,info@sahakariakhabar.com,https://www.sahakariakhabar.com/cooperative-directory/munal-saving-&-credit-cooperative-ltd.,Bagmati
Milijuli Saving & Credit Cooperative Ltd.,"bhimeshwor -6 charikot, dolkha",English,1421943,milijuli50.saccos@gmail.com,https://www.sahakariakhabar.com/cooperative-directory/milijuli-saving-&-credit-cooperative-ltd.,Bagmati
Manaslu  multipurpose ltd,lalitpur -20 purdachandi  marg,English,15555269,info@sahakariakhabar.com,https://www.sahakariakhabar.com/cooperative-directory/manaslu-multipurpose-ltd,Bagmati
Life- vision saving & credit cooperative ltd,budanilkantha -4 kapan kathmandu,English,14812813,info@sahakariakhabar.com,https://www.sahakariakhabar.com/cooperative-directory/life--vision-saving-&-credit-cooperative-ltd,Bagmati
Laxmi Narayan Multipurpose Ltd.,mulpani -4 babachowk kathmandu,English,14160067,sahakariakhabar@gmail.com,https://www.sahakariakhabar.com/cooperative-directory/laxmi-narayan-multipurpose-ltd.,Bagmati
Kipulcha Saving & Credit  Cooperative Ltd.,Chandragiri -5 kathmandu,English,14314075,info@sahakariakhabar.com,https://www.sahakariakhabar.com/cooperative-directory/kipulcha-saving-credit-cooperative-ltd,Bagmati
Karmath Saving & Credit Cooperative Ltd .,thamel kathmandu,English,14414872,karmathsahakari@live.com,https://www.sahakariakhabar.com/cooperative-directory/karmath-saving-&-credit-cooperative-ltd-.-1,Bagmati
kantibhairav saving & credit cooperative ltd,jorpati-7 kathmandu,English,14910959,info@sahakariakhabar.com,https://www.sahakariakhabar.com/cooperative-directory/kantibhairav-saving-&-credit-cooperative-ltd,Bagmati
Kanjirowa Saving & Credit  Cooperative  Ltd.,kapan aadarshanagar kathmandu,English,14810821,info@sahakariakhabar.com,https://www.sahakariakhabar.com/cooperative-directory/kanjirowa-saving-&-credit-cooperative-ltd.,Bagmati
kalyankari saving & credit cooperative ltd,Mahalaxmi municipality -5 lubu lalitpur,English,15580462,info@kalyankarisaccos.coop.np,https://www.sahakariakhabar.com/cooperative-directory/kalyankari-saving-&-credit-cooperative-ltd,Bagmati
jhamkeshwori saving &  credit  cooperative ltd,sesnarayan -2 nimdhoka  kathmandu,English,4710567,info@sahakariakhabar.com,https://www.sahakariakhabar.com/cooperative-directory/jhamkeshwori-saving-&-credit-cooperative-ltd,Bagmati
jeevandip  saving & credit  cooperative ltd,"indrachwok , kathmandu",English,15905923,mail@jeevaqndeepsaving.com,https://www.sahakariakhabar.com/cooperative-directory/jeevandip-saving-&-credit-cooperative-ltd,Bagmati
Janasachetan Saving & Credit Cooperative Ltd.,baiteshwor -5 kavre  dolakha,English,49411004,info@janasachetan.org.np,https://www.sahakariakhabar.com/cooperative-directory/janasachetan-saving-&-credit-cooperative-ltd.-1,Bagmati
Inivision saving & credit cooperative ltd,jorpati-7 utarkhel kathmandu,English,14913205,sahakariakhabar@gmail.com,https://www.sahakariakhabar.com/cooperative-directory/inivision-saving-&-credit-cooperative-ltd,Bagmati
Indreni  saving &  credit cooperative ltd,chandra giri  -5 kathmandu,English,14315344,indrenicooperative@gmail.com,https://www.sahakariakhabar.com/cooperative-directory/indreni-saving-credit-cooperative-ltd,Bagmati
home sahakari  cooperative ltd,",baneshwor ,battisputali ,kathmandu",English,14477898,info@sahakariakhabar.com,https://www.sahakariakhabar.com/cooperative-directory/home-sahakari-cooperative-ltd,Bagmati
Himshikhar multipurpose cooperative ltd,"madhyapur  thimi ,-15 gatthaghar , bhaktapur",English,5639454,info@himshikharcooperative.com.np,https://www.sahakariakhabar.com/cooperative-directory/himshikhar-multipurpose-cooperative-ltd-1,Bagmati
Himshikhar multipurpose cooperative ltd,"madhyapur  thimi ,-15 gatthaghar , bhaktapur",English,5639454,info@himshikharcooperative.com.np,https://www.sahakariakhabar.com/cooperative-directory/himshikhar-multipurpose-cooperative-ltd,Bagmati
hello nayan saving & credit cooperative ltd,lagankhel  lalitpur,English,4265811,info@sahakariakhabar.com,https://www.sahakariakhabar.com/cooperative-directory/hello-nayan-saving-&-credit-cooperative-ltd,Bagmati
hasana vastipur  saving & credit cooperative ltd,chandrajiri -12 balambu,English,14316173,hbsaccosb1@gmail.com,https://www.sahakariakhabar.com/cooperative-directory/hasana-vastipur-saving-&-credit-cooperative-ltd,Bagmati
Hamro Saving & Credit Coopertative Ltd.,"Prabag pokhari , lalitpur",English,15545229,info@hamrosaccos.ccop.np,https://www.sahakariakhabar.com/cooperative-directory/hamro-saving-&-credit-coopertative-ltd.,Bagmati
Hamro Sahara Saving  &  Credit Cooperative Ltd.,"tokha ,shworshwoti -6 ,kathmandu",English,16215933,hamrosahara@gmail.com,https://www.sahakariakhabar.com/cooperative-directory/hamro-sahara-saving-&-credit-cooperative-ltd.,Bagmati
Hamro Melmilap  Saving & Credit Coopewrative Ltd,Gothatar -8 kathmandu,English,4991087,info@sahakariakhabar.com,https://www.sahakariakhabar.com/cooperative-directory/hamro-melmilap-saving-&-credit-coopewrative-ltd,Bagmati
Guru saving & credit cooperative Ltd.,"lekhanath marj ,thamel kathmandu",English,4432701,info@sahakariakhabar.com,https://www.sahakariakhabar.com/cooperative-directory/guru-saving-&-credit-cooperative-ltd.,Bagmati
gurjudhara saving &credit cooperative ltd,"gurjudhara ,mahadevsthan-1 kathmandu",English,1314103,gurjudhara.sc@hotmail.com,https://www.sahakariakhabar.com/cooperative-directory/gurjudhara-saving-&credit-cooperative-ltd-1,Bagmati
gurjudhara saving &credit cooperative ltd,"gurjudhara ,mahadevsthan-1 kathmandu",English,1314103,gurjudhara.sc@hotmail.com,https://www.sahakariakhabar.com/cooperative-directory/gurjudhara-saving-&credit-cooperative-ltd,Bagmati
gothatar saving & credit cooperative ltd,"kajeshwori manahara ,mahantar , kathmandu",English,14993129,info@sahakariakhabar.com,https://www.sahakariakhabar.com/cooperative-directory/gothatar-saving-&-credit-cooperative-ltd,Bagmati
grand vision multipurpose cooperative ltd,Gokarneshwor -2 kathmandu,English,14800109,info@sahakariakhabar.com,https://www.sahakariakhabar.com/cooperative-directory/grand-vision-multipurpose-cooperative-ltd,Bagmati
Gorkha bikas  Saving & Credit Cooperative Ltd.,banepa kavrepalanchowk,English,11662831,info@sahakariakhabar.com,https://www.sahakariakhabar.com/cooperative-directory/gorkha-bikas-saving-&-credit-cooperative-ltd.,Bagmati
gamchha saving & credit cooperative ltd,gamcha bhaktapur,English,16639492,info@sahakariakhabar.com,https://www.sahakariakhabar.com/cooperative-directory/gamchha-saving-&-credit-cooperative-ltd,Bagmati
Dip prajaolan  saving & credit cooperative ltd,"sinamangal , kathmandu",English,4993414,info@sahakariakhabar.com,https://www.sahakariakhabar.com/cooperative-directory/dip-prajaolan-saving-&-credit-cooperative-ltd,Bagmati
Digo paryatan  saving& credit cooperative Ltd,"sorakhutte,kathmandu",English,14384377,digoparyatan@gmail.com,https://www.sahakariakhabar.com/cooperative-directory/digo-paryatan-saving&-credit-cooperative-ltd,Bagmati
Divyashwori Saving& credit cooperative ltd,madyapur thimi ; lokanthali  bhaktapur,English,6634753,dibyashworibachat@gmail.com,https://www.sahakariakhabar.com/cooperative-directory/divyashwori-saving&-credit-cooperative-ltd,Bagmati
Desire saving& credit cooperative ltd,kuleshwor -14 kathmandu,English,14287243,save4dfuture@gmail.com,https://www.sahakariakhabar.com/cooperative-directory/desire-saving&-credit-cooperative-ltd,Bagmati
dakshin  barahi saving &credit cooperative ltd,dadhikot  bhaktapur,English,16634288,info@sahakariakhabar.com,https://www.sahakariakhabar.com/cooperative-directory/dakshin-barahi-saving-&credit-cooperative-ltd,Bagmati
China Trade Multipurpose Cooperative Ltd.,mahaboudha  kathmandu,English,17514002,info@chitcol.com,https://www.sahakariakhabar.com/cooperative-directory/china-trade-multipurpose-cooperative-ltd.,Bagmati
Chameli kalyankari saving&credit cooperative ltd,surya binayak -1 bhaktapur,English,15143014,info@sahakariakhabar.com,https://www.sahakariakhabar.com/cooperative-directory/chameli-kalyankari-saving&credit-cooperative-ltd,Bagmati
Capital Saving & Credit Coopereative Ltd.,Banepa -10 kavrepalanchwok,English,11662224,capitalsaving@live.com,https://www.sahakariakhabar.com/cooperative-directory/capital-saving-&-credit-coopereative-ltd.,Bagmati
Canon Saving & Credit Cooperative Ltd.,sanobhanjang  kathmandu,English,15249364,canonsaccos@gmail.com,https://www.sahakariakhabar.com/cooperative-directory/canon-saving-&-credit-cooperative-ltd.,Bagmati
Brihaspati Saving & Credit Cooperative Ltd.,tokha road gangapu kathmandu,English,4356042,brihaspaticooperative@yahoo.com,https://www.sahakariakhabar.com/cooperative-directory/brihaspati-saving-&-credit-cooperative-ltd.,Bagmati
Bindabasini  Saving & credit cooperative ltd,panauti -10 khopasi  kavrepalanchowk,English,11660965,info@biscol.org.np,https://www.sahakariakhabar.com/cooperative-directory/bindabasini-saving-&-credit-cooperative-ltd,Bagmati
Bhimeshwor Multipurpose Cooperative Ltd.,Tamakoshi gaupalika -1 bhirkot,English,49690635,bhimeshworcooperative@gmail.com,https://www.sahakariakhabar.com/cooperative-directory/bhimeshwor-multipurpose-cooperative-ltd.,Bagmati
Balkumari Saving & Credit Cooprative  Ltd,sankhadhar chowk  madhyapur thimi -13 bhaktapur,English,5093455,basic@mail.com.np,https://www.sahakariakhabar.com/cooperative-directory/balkumari-saving-&-credit-cooprative-ltd,Bagmati
Balambhu cheu saving & credit cooperative ltd,balambu kathmandu,English,4314844,sahakariakhabar@gmail.com,https://www.sahakariakhabar.com/cooperative-directory/balambhu-cheu-saving-credit-cooperative-ltd,Bagmati
Bagh  bhairav  saving & credit cooperative,Nayabazar  kritipur,English,433298,sahakariakhabar@gmail.com,https://www.sahakariakhabar.com/cooperative-directory/bagh-bhairav-saving-&-credit-cooperative,Bagmati
Babiyakharka Saving & Credit Cooperative ltd,Om kareshwor  santinagar kathmandu,English,4108514,sahakariakhabar@gmail.com,https://www.sahakariakhabar.com/cooperative-directory/babiyakharka-saving-&-credit-cooperative-ltd,Bagmati
Artha Multipurpose Cooperative Ltd,Lagenkhel  Lalitpur,English,5540577,arthascc@gmail.com,https://www.sahakariakhabar.com/cooperative-directory/artha-multipurpose-cooperative-ltd,Bagmati
Aavash Saving & Credit  Cooperative Ltd.,"Banepa,-8  Teendobato kavrepalanchowk",English,11440345,aabash-saccos@hotmail.com,https://www.sahakariakhabar.com/cooperative-directory/aavash-saving-&-credit-cooperative-ltd.,Bagmati
Aashraya Multipurpose Cooperative Ltd.,Tahachal chowk kathmandu,English,14278423,info@sahakariakhabar.com,https://www.sahakariakhabar.com/cooperative-directory/aashraya-multipurpose-cooperative-ltd.,Bagmati
Aarohan Saving & Credit Cooperative Ltd.,kapan -3 kathmandu,English,41810940,sahakariakhabar@gmail.com,https://www.sahakariakhabar.com/cooperative-directory/aarohan-saving-&-credit-cooperative-ltd.,Bagmati
Aam Sarokar  Multipurpose Cooperative Ltd,Dachinkali -3 farping kathmandu,English,14710077,info@sahakariakhabar.com,https://www.sahakariakhabar.com/cooperative-directory/aam-sarokar-multipurpose-cooperative-ltd,Bagmati
Paurakhi  Saving & Credit Coopretive Ltd,Kawaseti  nawalparasi,English,78541026,paurakhicooperative2067@gmail.com,https://www.sahakariakhabar.com/cooperative-directory/paurakhi-saving-&-credit-coopretive-ltd,Lumbini
manjari  saving & credit cooperative ltd,lalitpur  satdobato,English,15552063,manjarimultipurposecoopl.t.d@gmail.com,https://www.sahakariakhabar.com/cooperative-directory/manjari-saving-&-credit-cooperative-ltd,Bagmati
panas saving & credit cooperative ltd,gapali surya binayak  Bhaktapur,English,16617788,info@sahakariakhabar.com,https://www.sahakariakhabar.com/cooperative-directory/panas-saving-&-credit-cooperative-ltd,Bagmati
Kalyankari Saving and Credit Co-Operative Limited,"Mahalaxmi Muncipality -5, Lubhu Devisthan, Lalitpur",English,15580376,info@kalyankarisaccos.coop.np,https://www.sahakariakhabar.com/cooperative-directory/kalyankari-saving-and-credit-co-operative-limited,Bagmati
Laksha Saving & Credit Cooperative Ltd,"Dudhpati, 1 Bhaktapur Nepal",English,16612275,info@sahakariakhabar.com,https://www.sahakariakhabar.com/cooperative-directory/laksha-saving-&-credit-cooperative-ltd,Bagmati
Gyarko Saving &Credit Cooperative Ltd,Gwarko 17 Lalitpur,English,15201247,info@sahakariakhabar.com,https://www.sahakariakhabar.com/cooperative-directory/gyarko-saving-&credit-cooperative-ltd,Bagmati
Siddhidata Multipurpose Cooperative Ltd,"Mahalaxmi,18 Imadol Lalitpur",English,15204248,info@sahakariakhabar.com,https://www.sahakariakhabar.com/cooperative-directory/siddhidata-multipurpose-cooperative-ltd,Bagmati
Samudayik Saving & Credit Cooperative Society Ltd.,Panauti 4 Taukhal Kavre,English,11440286,info@samudayieksaccos.org.np,https://www.sahakariakhabar.com/cooperative-directory/samudayik-saving-&-credit-cooperative-society-ltd.,Bagmati
Bhwonsa Bikas Saving & Credit Co-operative ltd,"suryabinayak 6, Katunje Bhaktapur",English,15092827,bhwonsabikas.saving@gmail.com,https://www.sahakariakhabar.com/cooperative-directory/bhwonsa-bikas-saving-&-credit-co-operative-ltd,Bagmati
Basanta Multipurpose Cooperative Ltd.,"Bahakhabazar,madhyapur Thimi 7 Bhaktapur",English,16638672,info@sahakariakhabar.com,https://www.sahakariakhabar.com/cooperative-directory/basanta-multipurpose-cooperative-ltd.,Bagmati
Binamra Multipurpose Cooperative Ltd.,"Kageshwori sansiti chowk, Kathmandu",English,15908089,info@sahakariakhabar.com,https://www.sahakariakhabar.com/cooperative-directory/binamra-multipurpose-cooperative-ltd.,Bagmati
Namaste saving & credit co-operative ltd,Mahalaxmi Imadol Lalitpur,English,15911455,namastesaving99@gmail.com,https://www.sahakariakhabar.com/cooperative-directory/namaste-saving-&-credit-co-operative-ltd,Bagmati
Sahayogi Saving & Credit Cooperative Ltd,mahadevpatti 2 Kanchanpur,English,31560363,sahayogi.kanchanrup@gmail.com,https://www.sahakariakhabar.com/cooperative-directory/sahayogi-saving-&-credit-cooperative-ltd,Sudurpashchim
Satungal saving and credit Cooperative Ltd,"Satungale, Kathmandu",English,14316389,satungalsaving2066@gmail.com,https://www.sahakariakhabar.com/cooperative-directory/satungal-saving-and-credit-cooperative-ltd,Bagmati
Maruti Saving &Credit Co-operative ltd.,"Manbhawan, Lalitpur",English,15531962,info@sahakariakhabar.com,https://www.sahakariakhabar.com/cooperative-directory/maruti-saving-&credit-co-operative-ltd.,Bagmati
Quick Saving & Credit Co-operative ltd.,"Koteshwor, Kathmandu",English,14610615,quicksaving2076@gmail.com,https://www.sahakariakhabar.com/cooperative-directory/quick-saving-&-credit-co-operative-ltd.,Bagmati
District Cooperative Union KTM,"Bijulibazar,Kathmandu",English,14783151,dristrictcoopunionktm@gmail.com,https://www.sahakariakhabar.com/cooperative-directory/district-cooperative-union-ktm,Bagmati
Prime Multipurpose Co-Operative Ltd.,Bharatpur 3 Narayanghat chitwan,English,56595728,primecooperativechitwan@gmail.com,https://www.sahakariakhabar.com/cooperative-directory/prime-multipurpose-co-operative-ltd.,Bagmati
Siddidata Bhagyalaxmi Saving And Credit Co-Operative Ltd,"kathmandu, Nepal",English,14150531,siddidata.multipurpose@gmail.com,https://www.sahakariakhabar.com/cooperative-directory/siddidata-bhagyalaxmi-saving-and-credit-co-operative-ltd,Bagmati
District Cooperative Union Ltd,"Sallahaghari, Bhaktapur Nepal",English,16611228,dcubkt15@gmail.com,https://www.sahakariakhabar.com/cooperative-directory/district-cooperative-union-ltd,Bagmati
Budol Samudayik Saving and Credit Cooperative Society.,"Budol, Banepa Kavrepalanchwok",English,11660564,info@budol.coop.np,https://www.sahakariakhabar.com/cooperative-directory/budol-samudayik-saving-and-credit-cooperative-society.,Bagmati
"Prithak Saving & Credit Cooperative ltd,",Branch Office kageshwori manohara 9 sunrisechowo Kathmandu,English,14601692,hamro.prithak1@gmail.com,"https://www.sahakariakhabar.com/cooperative-directory/prithak-saving-&-credit-cooperative-ltd,",Bagmati
Anmol Saving & Credit Cooperative Ltd,"Suryabinayak, Bhaktapur, Nepal",English,16619973,anmolsaving@gmail.com,https://www.sahakariakhabar.com/cooperative-directory/anmol-saving-&-credit-cooperative-ltd,Bagmati
Suryabinayak Multipurpose Cooperative Ltd,"Sallahaghari, Bhaktapur",English,16611150,sbmsavings@gmail.com,https://www.sahakariakhabar.com/cooperative-directory/suryabinayak-multipurpose-cooperative-ltd,Bagmati
Shree Dahi Binayak Saving & Credit Cooperative Ltd.,"Sallahaghari, Bhaktapur",English,16616788,info@sahakariakhabar.com,https://www.sahakariakhabar.com/cooperative-directory/shree-dahi-binayak-saving-&-credit-cooperative-ltd.,Bagmati
Janapriya Saving & Credit Cooperative Ltd,kumaripati 5 Lalitpur,English,15544457,abinash.karki814@gmail.com,https://www.sahakariakhabar.com/cooperative-directory/janapriya-saving-&-credit-cooperative-ltd,Bagmati
Bishnu Budhanilkantha Saving & Credit Cooperative,"Budhanilkantha , Kathmandu",English,14370899,info@sahakariakhabar.com,https://www.sahakariakhabar.com/cooperative-directory/bishnu-budhanilkantha-saving-&-credit-cooperative,Bagmati
Ittachhe Binayak Saving & Credit Cooperative Ltd,"Bhaktapur, Nepal",English,16612724,ittachhenbinayak@gmail.com,https://www.sahakariakhabar.com/cooperative-directory/ittachhe-binayak-saving-&-credit-cooperative-ltd,Bagmati
Urbharbhumi Agriculture Cooperative Ltd,"Kalimati, Kathmandu Nepal",English,151652060,info@sahakariakhabar.com,https://www.sahakariakhabar.com/cooperative-directory/urbharbhumi-agriculture-cooperative-ltd,Bagmati
Aarohan Saving & Credit Cooperative Ltd,"Kapan, Kathmandu",English,14810940,info@sahakariakhabar.com,https://www.sahakariakhabar.com/cooperative-directory/aarohan-saving-&-credit-cooperative-ltd,Bagmati
Bhawani Aadeshwor Saving & Credit Cooperative Ltd,"Bhosikotole, Kathmandu",English,14259746,info@sahakariakhabar.com,https://www.sahakariakhabar.com/cooperative-directory/bhawani-aadeshwor-saving-&-credit-cooperative-ltd,Bagmati
Uttar Bahini Multipurpose Cooperative Ltd,Gokarneshwor 7 Kathmandu,English,14800993,info@sahakariakhabar.com,https://www.sahakariakhabar.com/cooperative-directory/uttar-bahini-multipurpose-cooperative-ltd,Bagmati
Kalki Saving & Credit Co Operative Ltd,Ratopul Kathmandu Nepal,English,14473807,kalki.saving@gmail.com,https://www.sahakariakhabar.com/cooperative-directory/kalki-saving-&-credit-co-operative-ltd,Bagmati
Hinchok Bhairav Saving & Credit Cooperative Ltd.,suryabinayak 4 Dhadhikot Bhaktapur,English,16638854,info@sahakariakhabar.com,https://www.sahakariakhabar.com/cooperative-directory/hinchok-bhairav-saving-&-credit-cooperative-ltd.,Bagmati
Panchamrit Saving & Credit  Credit Cooperative Socieety Ltd,Mahalaxmi Imadol Lalitpur,English,15201993,hamropanchamrit@gmail.com,https://www.sahakariakhabar.com/cooperative-directory/panchamrit-saving-&-credit-credit-cooperative-socieety-ltd,Bagmati
Swadhan Saving & Credit Co-operative Ltd.,Mahalaxmi Imadol Lalitpur,English,15203010,info@sahakariakhabar.com,https://www.sahakariakhabar.com/cooperative-directory/swadhan-saving-&-credit-co-operative-ltd.,Bagmati
Dakshin barahi mahila Saving & Credit Cooperative Ltd.,"Suryabinayak, Dhadhikot, Bhaktapur",English,16634288,dbwsaccos2055@gmail.com,https://www.sahakariakhabar.com/cooperative-directory/dakshin-barahi-mahila-saving-&-credit-cooperative-ltd.,Bagmati
Chhahari Saccos Chhahari Saving ( ),"Suryabinayak 4 dhadhikot Gamcha, Bhaktapur Nepal",English,16635758,chhaharisaving@gmail.com,https://www.sahakariakhabar.com/cooperative-directory/chhahari-saccos-chhahari-saving-%28%E0%A4%9B%E0%A4%B9%E0%A4%BE%E0%A4%B0%E0%A5%80-%E0%A4%B8%E0%A4%BE%E0%A4%95%E0%A5%8B%E0%A4%B8%29,Bagmati
Musewan Mahila Agriculture Cooperative Ltd,"Mahalaxmi,7 changathali Lalitpur",English,15581456,muswan.cooperative@gmail.com,https://www.sahakariakhabar.com/cooperative-directory/musewan-mahila-agriculture-cooperative-ltd,Bagmati
Hatemalo Saving & Credit Cooperative Ltd.,"Katunje, Bhaktapur Nepal",English,15092414,info@sahakariakhabar.com,https://www.sahakariakhabar.com/cooperative-directory/hatemalo-saving-&-credit-cooperative-ltd.,Bagmati
Shree Barahi Saving & Credit Cooperative Society Ltd,"Bhalacha, Bhaktapur,Nepal",English,16611364,sbarahisaccos@gmail.com,https://www.sahakariakhabar.com/cooperative-directory/shree-barahi-saving-&-credit-cooperative-society-ltd,Bagmati
Prerak Saving & Credit Cooperative Ltd.,"Rammandir, Bhaktapur, Nepal",English,16620918,preraksaving516@gmail.com,https://www.sahakariakhabar.com/cooperative-directory/prerak-saving-&-credit-cooperative-ltd.,Bagmati
Bhaktapur Tourism Development Saving & Credit Co-operative Ltd.,"Rammandir, Bhaktapur, Nepal",English,16614506,bkttourismsahakari@gmail.com,https://www.sahakariakhabar.com/cooperative-directory/bhaktapur-tourism-development-saving-&-credit-co-operative-ltd.,Bagmati
Bhadgaun Multiple Cooperative ltd,"Suryabinayak, Bhaktapur, Nepal",English,15900674,bhadgauncooperative@gmail.com,https://www.sahakariakhabar.com/cooperative-directory/bhadgaun-multiple-cooperative-ltd,Bagmati
Panchakanya Saving & Credit Co-operative Ltd.,"Newroad, Kathmandu Nepal",English,15360013,panchakanyasaving@gmail.com,https://www.sahakariakhabar.com/cooperative-directory/panchakanya-saving-&-credit-co-operative-ltd.,Bagmati
Shrejana Saving & Credit Co operative ltd,"Balkot, Bhaktapur, Nepal",English,15639904,shrijanacooperative@yahoo.com,https://www.sahakariakhabar.com/cooperative-directory/shrejana-saving-&-credit-co-operative-ltd,Bagmati
Jagadamba Saving & Credit Co-operative Limited,"Suryabinayak, Bhaktapur, Nepal",English,16613728,jagadambacooperative@gmail.com,https://www.sahakariakhabar.com/cooperative-directory/jagadamba-saving-&-credit-co-operative-limited,Bagmati
Janahitkari Saving & Credit Copperative Ltd.,Birendranagar 4 Kalagaun,English,83521562,janahitkari2055@gmail.com,https://www.sahakariakhabar.com/cooperative-directory/janahitkari-saving-credit-copperative-ltd,Sudurpashchim
molung Saving & Credit Cooperative Ltd.,"Kausaltar, Bhaktapur",English,16639488,molungsaving@gmail.com,https://www.sahakariakhabar.com/cooperative-directory/molung-saving-&-credit-cooperative-ltd.,Bagmati
Nawa Shree Mandap Saving & Credit Co-Operative Ltd.,"Gatthaghar, Bhaktapur",English,16639155,info@sahakariakhabar.com,https://www.sahakariakhabar.com/cooperative-directory/nawa-shree-mandap-saving-&-credit-co-operative-ltd.,Bagmati
Sitapaila Multipurpose Co-Operative Ltd.,"Sitapaila Kathmandu, Nepal",English,15376488,info@simcos.com.np,https://www.sahakariakhabar.com/cooperative-directory/sitapaila-multipurpose-co-operative-ltd.,Bagmati
Durga Bhawani Saving & Credit Cooperative Ltd.,"Dhumbarahi, Kathmandu Nepal",English,14437768,info@durgabhawani.com,https://www.sahakariakhabar.com/cooperative-directory/durga-bhawani-saving-&-credit-cooperative-ltd.,Madhesh
Panch Tara Saving & Credit Cooperative Ltd.,Purano sinamangle 32 Kathmandu Nepal,English,14990706,5starsahakari@gmail.com,https://www.sahakariakhabar.com/cooperative-directory/panch-tara-saving-&-credit-cooperative-ltd.,Bagmati
Royal Multipurpose Cooperative Society Limited,"Basundhara, Kathmandu Nepal",English,14964458,info.royalcooperativeltd@gmail.com,https://www.sahakariakhabar.com/cooperative-directory/royal-multipurpose-cooperative-society-limited,Bagmati
Ugratirtha Saving & Credit Cooperative Ltd.,"Banepa, Kavrepalanchwok",English,11664027,info@sahakariakhabar.com,https://www.sahakariakhabar.com/cooperative-directory/ugratirtha-saving-&-credit-cooperative-ltd.,Bagmati
Agni Saving and Credit Co-operative Ltd,"Banepa, Kavrepalanchwok",English,11663523,info@sahakariakhabar.com,https://www.sahakariakhabar.com/cooperative-directory/agni-saving-and-credit-co-operative-ltd,Bagmati
Shuva Lav Saving & Credit Cooperative Ltd.,"Kuleshwor, Kathmandu Nepal",English,14301708,shuvalavcooperative@gmail.com,https://www.sahakariakhabar.com/cooperative-directory/shuva-lav-saving-&-credit-cooperative-ltd.,Bagmati
Tapain Hamro Multipurpose Cooperative Ltd,"Nayanaikap, Kathmandu Nepal",English,14316000,cooptapainhamro@gmail.com,https://www.sahakariakhabar.com/cooperative-directory/tapain-hamro-multipurpose-cooperative-ltd,Bagmati
Basaha Saving & Credit Cooperative Ltd.,"aloknagar gate, minbhawan Kathmandu Nepal",English,14106566,basccl@gmail.com,https://www.sahakariakhabar.com/cooperative-directory/basaha-saving-&-credit-cooperative-ltd.,Bagmati
Shubhalabh Multipurpose Co-Operative Ltd,"satdobato, Lalitpur Nepal",English,15551590,shubha_mcl@ntc.net.np,https://www.sahakariakhabar.com/cooperative-directory/shubhalabh-multipurpose-co-operative-ltd,Bagmati
Zest Saving & Credit Cooperative Ltd.,"Gongabu, kathmandu Nepal",English,14388561,connect2zest@gmail.com,https://www.sahakariakhabar.com/cooperative-directory/zest-saving-&-credit-cooperative-ltd.,Bagmati
Shukrapath Multipurpose Cooperative Ltd.,"Sahakari Bhawan, Pyukha-22, Newroad, Kathmandu",English,15713311,sukrapath@gmail.com,https://www.sahakariakhabar.com/cooperative-directory/shukrapath-multipurpose-cooperative-ltd.,Bagmati
Megadream Multipurpose Co-operative Ltd.,"machhapokhari, Balaju Kathmandu",English,14387615,info@sahakariakhabar.com,https://www.sahakariakhabar.com/cooperative-directory/megadream-multipurpose-co-operative-ltd.,Bagmati
Nagarik Bikash Saving & Credit Co-Oprative Ltd,"Kausaltar, Bhaktapur, Nepal",English,15639330,info@sahakariakhabar.com,https://www.sahakariakhabar.com/cooperative-directory/nagarik-bikash-saving-&-credit-co-oprative-ltd,Bagmati
Sahara Nepal Saving & Credit Cooperative Ltd.,"Charpane, Jhapa Nepal",English,23543408,charpane@saharanepal.coop.np,https://www.sahakariakhabar.com/cooperative-directory/sahara-nepal-saving-&-credit-cooperative-ltd.,Koshi
Ime cooperative Ltd.,"kantipath, kathmandu",English,14239601,info@imecsl.com,https://www.sahakariakhabar.com/cooperative-directory/ime-cooperative-ltd.,Bagmati
Kumari saving & Credit Cooperative Ltd.,"Kumari Co-Operative Building, Kumari Chowk, Chabahil, Mitrapark KTM",English,14478006,kumarisaving@gmail.com,https://www.sahakariakhabar.com/cooperative-directory/kumari-saving-&-credit-cooperative-ltd.,Bagmati
Sana Bitta Bikas Multipurpose Co-operative Ltd.,"Kathmandu, Nepal",English,14480317,info@sanabitta.com.np,https://www.sahakariakhabar.com/cooperative-directory/sana-bitta-bikas-multipurpose-co-operative-ltd.,Bagmati
Shree Jana Shakti Saving & Credit Cooperative Ltd,", ",Nepali,16610743,janashaktisaving@gmail.com,https://www.sahakariakhabar.com/cooperative-directory/shree-jana-shakti-saving-&-credit-cooperative-ltd,Bagmati
Subhakamana Saving & Credit Cooperative Ltd,", ",Nepali,16613961,subhakamanasaccos@gmail.com,https://www.sahakariakhabar.com/cooperative-directory/subhakamana-saving-&-credit-cooperative-ltd,Bagmati
Samuhik Saving & Credit cooperative Ltd.," , ",Nepali,16613512,info@samuhik.coop.np,https://www.sahakariakhabar.com/cooperative-directory/samuhik-saving-&-credit-cooperative-ltd.,Bagmati
Siddhartha Saving & Credit cooperative Ltd.," , ",Nepali,15093426,siddharthasaccos1st@gmail.com,https://www.sahakariakhabar.com/cooperative-directory/siddhartha-saving-&-credit-cooperative-ltd.,Bagmati
Banglamukhi Saving & Credit cooperative Ltd.,", , ",Nepali,15093244,banglamukhisaving@hotmail.com,https://www.sahakariakhabar.com/cooperative-directory/banglamukhi-saving-&-credit-cooperative-ltd.,Bagmati
Annapurna Multipale cooperative Ltd.,"    , ",Nepali,16634386,ampcl054@gmil.com,https://www.sahakariakhabar.com/cooperative-directory/annapurna-multipale-cooperative-ltd.,Bagmati
Shipshil Multipale Cooperative Ltd.,"Gokarneshwor-5, Sugamnagar, (Jammu Dada) Jorpati, Kathmandu",English,14915017,shipsilsaccos@gmail.com,https://www.sahakariakhabar.com/cooperative-directory/shipshil-multipale-cooperative-ltd.,Bagmati
NawaKantipur Saving & Credit Cooperative,"Battisputali, Kathmandu",English,14248906,info@nawakantipur.com.np,https://www.sahakariakhabar.com/cooperative-directory/nawakantipur-saving-&-credit-cooperative,Bagmati
Budol Samudaik Saving & Credit Cooperative,"Budol, banepa Kavre",English,11411192,tukuchasc@busa.org.np,https://www.sahakariakhabar.com/cooperative-directory/budol-samudaik-saving-&-credit-cooperative,Bagmati
Bindhavasini Saving & Credit Cooperative,   ,Nepali,11660965,info@biscol.org.np,https://www.sahakariakhabar.com/cooperative-directory/bindhavasini-saving-&-credit-cooperative,Bagmati
Nagarik Bikash Saving & Credit Cooperative,",  ",Nepali,11660997,nagarikco@gmail.com,https://www.sahakariakhabar.com/cooperative-directory/nagarik-bikash-saving-&-credit-cooperative,Bagmati
Chandragiri Saving & Credit Cooperative," , , , ",Nepali,14312109,info@chandragiri.coop.np,https://www.sahakariakhabar.com/cooperative-directory/chandragiri-saving-&-credit-cooperative,Bagmati
National Cooperative Bank,",, ",Nepali,15555687,corporate@ncbl.coop,https://www.sahakariakhabar.com/cooperative-directory/national-cooperative-bank,Bagmati
Avudaya Saving & Credit Cooperative," , ",Nepali,15639516,avyudayans510@gmail.com,https://www.sahakariakhabar.com/cooperative-directory/avudaya-saving-&-credit-cooperative,Bagmati
MegaDream Multipurpose Cooperative,",  , ",Nepali,14387615,megadream.saccos@gmail.com,https://www.sahakariakhabar.com/cooperative-directory/megadream-multipurpose-cooperative,Bagmati
Nepal Federation Of Saving & Credit Cooperative Unions Ltd," , ",Nepali,14781963,nefscun@nefscun.org.np,https://www.sahakariakhabar.com/cooperative-directory/nepal-federation-of-saving-&-credit-cooperative-unions-ltd,Bagmati
National Cooperative Federation of Nepal,", , ",Nepali,15010075,ncf@wlink.com.np,https://www.sahakariakhabar.com/cooperative-directory/national-cooperative-federation-of-nepal,Bagmati
National Cooperative Development Board,", , ",Nepali,15010131,coopdesk@gmail.com,https://www.sahakariakhabar.com/cooperative-directory/national-cooperative-development-board,Bagmati
"Ministry of Land Management,Cooperatives and Poverty Alleviation",", ",Nepali,14211526,info@molcpa.gov.np,"https://www.sahakariakhabar.com/cooperative-directory/ministry-of-land-management,cooperatives-and-poverty-alleviation",Bagmati
Department Of Cooperative," , ",Nepali,14465362,sahakaribivag@gmail.com,https://www.sahakariakhabar.com/cooperative-directory/department-of-cooperative,Bagmati
Hamro Sagarmatha Multipurpose Cooperative," :  ,  ",Nepali,15180207,info@hamrosagarmatha.coop.np,https://www.sahakariakhabar.com/cooperative-directory/hamro-sagarmatha-multipurpose-cooperative,Bagmati
Kohinoor Saving and Credit Cooperative Pvt. Ltd.,"Hyatt Gate, Kathmandu, , Nepal",English,9841816541,info@sahakariakhabar.com,https://www.sahakariakhabar.com/cooperative-directory/kohinoor-saving-and-credit-cooperative-pvt.-ltd.,Bagmati
Khushi Saving & Credit Co-Operative Limited,"Newroad, Kathmandu, Nepal",English,14212226,khushisavingcredit@gmail.com,https://www.sahakariakhabar.com/cooperative-directory/khushi-saving-&-credit-co-operative-limited,Bagmati
Growmax Saving & Credit Cooperative Limited,"Newroad-24, Kathmandu, Nepal",English,15713055,growmaxsaving@gmail.com,https://www.sahakariakhabar.com/cooperative-directory/growmax-saving-&-credit-cooperative-limited,Bagmati
Shuva Ganapati Saving and Credit Cooperative Ltd.,"Bangemuda, Kathmandu, Nepal",English,14232102,shuvaganapati@live.com,https://www.sahakariakhabar.com/cooperative-directory/shuva-ganapati-saving-and-credit-cooperative-ltd.,Bagmati
Moneyplant Cooperative,"Kathmandu-31, Min Bhawan, Kathmandu, Nepal",English,14620265,moneyplantsaccos@yahoo.com,https://www.sahakariakhabar.com/cooperative-directory/moneyplant-cooperative,Bagmati
Sanskar Saving And Credit Cooperative Ltd.,"Kathmandu, Nepal",English,14387040,sanskarcooperativenepal@gmail.com,https://www.sahakariakhabar.com/cooperative-directory/sanskar-saving-and-credit-cooperative-ltd,Bagmati
